{"type":"FeatureCollection","name":"atlas-bosque-fill","crs":{"type":"name","properties":{"name":"urn:ogc:def:crs:OGC:1.3:CRS84"}},"features":[{"type":"Feature","properties":{"kind":"bosque","nam":"Bosques Patagónicos"},"geometry":{"type":"MultiPolygon","coordinates":[[[[-66.54815,-55.06278],[-66.54888,-55.06259],[-66.54601,-55.06291],[-66.54632,-55.06319],[-66.54639,-55.06325],[-66.54815,-55.06278]]],[[[-66.30455,-55.01662],[-66.30672,-55.01062],[-66.30483,-55.01102],[-66.30199,-55.01162],[-66.30298,-55.01355],[-66.30455,-55.01662]]],[[[-67.0101,-54.95612],[-67.00535,-54.95381],[-67.00465,-54.95496],[-67.00421,-54.95568],[-67.01045,-54.95629],[-67.0101,-54.95612]]],[[[-65.57466,-54.95049],[-65.57291,-54.95185],[-65.57289,-54.95197],[-65.57304,-54.95204],[-65.5745,-54.95159],[-65.5752,-54.95044],[-65.57466,-54.95049]]],[[[-65.58996,-54.94955],[-65.5925,-54.94987],[-65.59186,-54.94948],[-65.59102,-54.94899],[-65.59101,-54.94899],[-65.58996,-54.94955]]],[[[-67.03432,-54.94947],[-67.03342,-54.94729],[-67.03111,-54.94889],[-67.02751,-54.9514],[-67.03487,-54.95082],[-67.03432,-54.94947]]],[[[-64.61089,-54.91606],[-64.61275,-54.91596],[-64.6106,-54.91533],[-64.60986,-54.91511],[-64.60986,-54.91611],[-64.61089,-54.91606]]],[[[-64.60764,-54.91373],[-64.60871,-54.91387],[-64.60849,-54.91364],[-64.60819,-54.91335],[-64.60819,-54.91335],[-64.60764,-54.91373]]],[[[-67.37387,-54.90802],[-67.39174,-54.90776],[-67.40097,-54.90206],[-67.3747,-54.90361],[-67.37406,-54.90699],[-67.37387,-54.90802]]],[[[-67.40153,-54.89505],[-67.40127,-54.89431],[-67.40114,-54.89393],[-67.3958,-54.89394],[-67.40061,-54.89487],[-67.40153,-54.89505]]],[[[-67.34304,-54.89901],[-67.34323,-54.89882],[-67.34916,-54.89279],[-67.33583,-54.89663],[-67.34304,-54.89901]]],[[[-67.3847,-54.89291],[-67.39208,-54.89247],[-67.394,-54.89235],[-67.39117,-54.89143],[-67.38255,-54.88865],[-67.3847,-54.89291]]],[[[-64.66462,-54.88934],[-64.66624,-54.89091],[-64.67127,-54.89136],[-64.66615,-54.88937],[-64.66365,-54.88839],[-64.66462,-54.88934]]],[[[-67.43066,-54.8882],[-67.43103,-54.88833],[-67.43094,-54.88744],[-67.42838,-54.88484],[-67.42838,-54.88484],[-67.42838,-54.88485],[-67.43066,-54.8882]]],[[[-67.35869,-54.88355],[-67.35742,-54.88365],[-67.35478,-54.88387],[-67.35804,-54.88407],[-67.35825,-54.8839],[-67.35869,-54.88355]]],[[[-67.42795,-54.88243],[-67.42794,-54.88243],[-67.43304,-54.8823],[-67.43928,-54.88213],[-67.43928,-54.88213],[-67.43441,-54.88174],[-67.42795,-54.88243]]],[[[-68.24278,-54.8783],[-68.24326,-54.87917],[-68.24468,-54.87886],[-68.24645,-54.87847],[-68.24587,-54.87834],[-68.24237,-54.87758],[-68.24278,-54.8783]]],[[[-67.47161,-54.8844],[-67.44712,-54.87906],[-67.4361,-54.89293],[-67.42215,-54.89645],[-67.40794,-54.90004],[-67.415,-54.89976],[-67.42203,-54.89949],[-67.42203,-54.89949],[-67.42203,-54.89949],[-67.42133,-54.90063],[-67.41428,-54.91225],[-67.45251,-54.90373],[-67.46207,-54.9016],[-67.46207,-54.9016],[-67.46207,-54.9016],[-67.48765,-54.91797],[-67.53614,-54.90192],[-67.5387,-54.88842],[-67.54033,-54.87979],[-67.47161,-54.8844]]],[[[-64.48023,-54.87635],[-64.48137,-54.87768],[-64.48526,-54.87711],[-64.48023,-54.87635]]],[[[-68.24758,-54.87539],[-68.25296,-54.87491],[-68.24953,-54.87517],[-68.23821,-54.87603],[-68.23824,-54.87613],[-68.23827,-54.87623],[-68.24758,-54.87539]]],[[[-64.17186,-54.87606],[-64.17444,-54.87642],[-64.17444,-54.87639],[-64.17296,-54.87591],[-64.17186,-54.87606]]],[[[-64.16632,-54.8768],[-64.16633,-54.87681],[-64.16783,-54.87683],[-64.1671,-54.87669],[-64.16632,-54.8768]]],[[[-64.17268,-54.88007],[-64.17384,-54.88027],[-64.17269,-54.8781],[-64.17086,-54.87917],[-64.17268,-54.88007]]],[[[-68.25885,-54.87338],[-68.2613,-54.87369],[-68.26134,-54.87358],[-68.2615,-54.87322],[-68.25711,-54.87315],[-68.25885,-54.87338]]],[[[-68.08552,-54.87259],[-68.0862,-54.87243],[-68.08404,-54.87232],[-68.08437,-54.87285],[-68.08552,-54.87259]]],[[[-68.19858,-54.87309],[-68.19995,-54.87243],[-68.20068,-54.87207],[-68.1989,-54.87212],[-68.19715,-54.87217],[-68.19793,-54.87267],[-68.19858,-54.87309]]],[[[-68.20538,-54.87214],[-68.20824,-54.87165],[-68.20695,-54.87084],[-68.20695,-54.87084],[-68.20536,-54.87214],[-68.20538,-54.87214]]],[[[-68.16855,-54.87176],[-68.17807,-54.87314],[-68.17772,-54.87124],[-68.16855,-54.87176],[-68.16855,-54.87176]]],[[[-67.45718,-54.87118],[-67.45717,-54.87118],[-67.44608,-54.87585],[-67.46958,-54.8803],[-67.47219,-54.8725],[-67.45718,-54.87118]]],[[[-68.2654,-54.86798],[-68.26627,-54.86748],[-68.26552,-54.86726],[-68.26248,-54.86636],[-68.2654,-54.86798]]],[[[-68.23289,-54.87037],[-68.26185,-54.86977],[-68.26703,-54.86966],[-68.24573,-54.86913],[-68.2329,-54.87037],[-68.23289,-54.87037]]],[[[-68.455,-54.86415],[-68.4591,-54.86528],[-68.46,-54.86527],[-68.46001,-54.86521],[-68.45966,-54.86495],[-68.45508,-54.86393],[-68.455,-54.86415]]],[[[-68.24521,-54.86204],[-68.25181,-54.86246],[-68.25375,-54.86258],[-68.25312,-54.86113],[-68.25303,-54.86092],[-68.24746,-54.86172],[-68.24521,-54.86204]]],[[[-68.47971,-54.86084],[-68.47495,-54.86559],[-68.47974,-54.866],[-68.4864,-54.86656],[-68.48156,-54.86242],[-68.47971,-54.86084]]],[[[-68.2425,-54.85826],[-68.23171,-54.85957],[-68.23223,-54.86018],[-68.23341,-54.86158],[-68.23581,-54.8607],[-68.2425,-54.85826]]],[[[-68.17303,-54.86081],[-68.1737,-54.85987],[-68.17402,-54.85942],[-68.16818,-54.85703],[-68.17303,-54.86081]]],[[[-68.18614,-54.8545],[-68.18387,-54.85432],[-68.18291,-54.85425],[-68.18323,-54.85473],[-68.1844,-54.85464],[-68.18614,-54.8545]]],[[[-68.25029,-54.84684],[-68.24786,-54.84821],[-68.24786,-54.84821],[-68.25529,-54.84827],[-68.25655,-54.848],[-68.25029,-54.84684]]],[[[-64.38549,-54.8526],[-64.39188,-54.85248],[-64.39058,-54.84718],[-64.3876,-54.84985],[-64.38549,-54.8526]]],[[[-64.34986,-54.84444],[-64.34986,-54.84444],[-64.34986,-54.84444],[-64.3501,-54.84363],[-64.3501,-54.84363],[-64.3501,-54.84363],[-64.34986,-54.84444]]],[[[-64.35344,-54.84297],[-64.35454,-54.84387],[-64.35552,-54.84467],[-64.35537,-54.84375],[-64.35344,-54.84297]]],[[[-64.32683,-54.84249],[-64.32679,-54.84251],[-64.32706,-54.84279],[-64.33069,-54.84397],[-64.33244,-54.84344],[-64.33252,-54.84298],[-64.33214,-54.84284],[-64.32683,-54.84249]]],[[[-64.33108,-54.84708],[-64.33066,-54.84495],[-64.32981,-54.84573],[-64.33108,-54.84708]]],[[[-68.25709,-54.83537],[-68.25439,-54.83552],[-68.2524,-54.83629],[-68.25717,-54.83552],[-68.25862,-54.83528],[-68.25709,-54.83537]]],[[[-64.361,-54.83149],[-64.361,-54.8315],[-64.36265,-54.83196],[-64.3621,-54.8313],[-64.361,-54.83149]]],[[[-64.09507,-54.74648],[-64.09669,-54.74703],[-64.10314,-54.74921],[-64.09708,-54.74613],[-64.09507,-54.74648]]],[[[-64.09453,-54.74357],[-64.09756,-54.74315],[-64.09552,-54.74296],[-64.09453,-54.74357]]],[[[-64.09317,-54.74061],[-64.09263,-54.73982],[-64.09172,-54.74041],[-64.09126,-54.74071],[-64.09336,-54.74167],[-64.09412,-54.74202],[-64.09317,-54.74061]]],[[[-64.33646,-54.72604],[-64.33358,-54.73219],[-64.27866,-54.72896],[-64.24354,-54.74523],[-64.24293,-54.74497],[-64.24235,-54.74523],[-64.21632,-54.73386],[-64.13851,-54.77041],[-64.14541,-54.74509],[-64.16029,-54.74135],[-64.16492,-54.74019],[-64.1495,-54.73034],[-64.10944,-54.73798],[-64.10739,-54.74518],[-64.10611,-54.7497],[-64.12645,-54.75755],[-64.10843,-54.76433],[-64.08321,-54.75184],[-64.07292,-54.7284],[-64.04728,-54.73036],[-64.04984,-54.74208],[-64.04984,-54.74208],[-64.04984,-54.74208],[-64.03032,-54.75136],[-64.03936,-54.76131],[-64.05097,-54.77409],[-64.04466,-54.77713],[-64.04258,-54.77813],[-64.02426,-54.75249],[-64.00152,-54.74136],[-63.98987,-54.73566],[-63.97104,-54.73897],[-63.95805,-54.74125],[-63.93919,-54.72567],[-63.87631,-54.7168],[-63.87718,-54.72254],[-63.8784,-54.73066],[-63.8784,-54.73066],[-63.8784,-54.73066],[-63.85484,-54.73173],[-63.88851,-54.7516],[-63.88851,-54.7516],[-63.88851,-54.7516],[-63.87875,-54.75523],[-63.87875,-54.75523],[-63.87875,-54.75523],[-63.82593,-54.72061],[-63.81267,-54.7235],[-63.79589,-54.72715],[-63.8032,-54.73208],[-63.81028,-54.73685],[-63.80584,-54.74399],[-63.80148,-54.75101],[-63.8157,-54.75595],[-63.82902,-54.76058],[-63.84568,-54.7892],[-63.87037,-54.79167],[-63.88601,-54.79324],[-63.8828,-54.77968],[-63.8828,-54.77968],[-63.8828,-54.77968],[-63.89051,-54.78336],[-63.95341,-54.81335],[-63.95674,-54.80056],[-63.94508,-54.79592],[-63.94508,-54.79592],[-63.94508,-54.79592],[-63.96751,-54.79366],[-63.9549,-54.76683],[-63.9549,-54.76683],[-63.9549,-54.76683],[-63.95492,-54.76684],[-64.02295,-54.7911],[-64.02758,-54.79788],[-64.03657,-54.80172],[-64.05018,-54.80107],[-64.05257,-54.80002],[-64.06117,-54.77981],[-64.0612,-54.77974],[-64.06322,-54.7807],[-64.08458,-54.7908],[-64.08457,-54.7908],[-64.08458,-54.7908],[-64.07905,-54.79251],[-64.07113,-54.79497],[-64.07269,-54.79992],[-64.07524,-54.80805],[-64.10094,-54.8165],[-64.10986,-54.83328],[-64.12062,-54.81436],[-64.12063,-54.81436],[-64.12063,-54.81436],[-64.14817,-54.83006],[-64.17232,-54.82328],[-64.17964,-54.83893],[-64.20057,-54.8284],[-64.20058,-54.8284],[-64.20058,-54.8284],[-64.20902,-54.84065],[-64.22076,-54.85767],[-64.22371,-54.84197],[-64.23083,-54.84123],[-64.23912,-54.84036],[-64.23109,-54.8355],[-64.23368,-54.83121],[-64.22748,-54.8208],[-64.22747,-54.8208],[-64.23468,-54.78196],[-64.26365,-54.80454],[-64.27016,-54.79057],[-64.27016,-54.79057],[-64.27016,-54.79057],[-64.28705,-54.78941],[-64.30613,-54.7881],[-64.29909,-54.80644],[-64.33345,-54.83002],[-64.39442,-54.82733],[-64.41251,-54.85874],[-64.44967,-54.87568],[-64.44927,-54.87142],[-64.44863,-54.86464],[-64.44863,-54.86465],[-64.44863,-54.86464],[-64.47248,-54.87127],[-64.4846,-54.87464],[-64.48461,-54.87463],[-64.48917,-54.86046],[-64.49263,-54.86099],[-64.49387,-54.85888],[-64.47818,-54.85165],[-64.47818,-54.85165],[-64.47818,-54.85165],[-64.48003,-54.8507],[-64.48593,-54.84766],[-64.44434,-54.83895],[-64.44435,-54.83895],[-64.44434,-54.83895],[-64.47147,-54.83519],[-64.46348,-54.82961],[-64.4581,-54.82586],[-64.46203,-54.82467],[-64.46614,-54.82343],[-64.51291,-54.85144],[-64.51823,-54.85463],[-64.51823,-54.85463],[-64.51823,-54.85463],[-64.52504,-54.86528],[-64.52667,-54.86783],[-64.51561,-54.87021],[-64.53295,-54.88368],[-64.53905,-54.88842],[-64.56394,-54.88325],[-64.56627,-54.88277],[-64.60615,-54.91085],[-64.62096,-54.90295],[-64.67323,-54.9108],[-64.70423,-54.91546],[-64.64387,-54.88915],[-64.64388,-54.88914],[-64.64387,-54.88914],[-64.67482,-54.86731],[-64.68366,-54.86108],[-64.66651,-54.85171],[-64.66438,-54.85055],[-64.68494,-54.84325],[-64.68633,-54.84276],[-64.7072,-54.84925],[-64.73904,-54.85916],[-64.74407,-54.85775],[-64.74863,-54.85648],[-64.74676,-54.85426],[-64.73824,-54.84414],[-64.73824,-54.84414],[-64.73824,-54.84414],[-64.75657,-54.83649],[-64.73396,-54.81874],[-64.72493,-54.81165],[-64.72493,-54.81165],[-64.72493,-54.81165],[-64.73784,-54.80451],[-64.73783,-54.80451],[-64.69999,-54.80227],[-64.69735,-54.80605],[-64.67502,-54.8008],[-64.67502,-54.8008],[-64.67502,-54.8008],[-64.67502,-54.8008],[-64.69615,-54.7843],[-64.692,-54.78259],[-64.68713,-54.78058],[-64.64789,-54.77681],[-64.63961,-54.79714],[-64.5865,-54.82081],[-64.5865,-54.82081],[-64.5865,-54.82081],[-64.55687,-54.79592],[-64.51142,-54.79806],[-64.51142,-54.79806],[-64.51142,-54.79806],[-64.51757,-54.79414],[-64.52674,-54.7883],[-64.52146,-54.77312],[-64.5415,-54.76855],[-64.54464,-54.72525],[-64.48991,-54.76375],[-64.45634,-54.76217],[-64.43224,-54.76103],[-64.43923,-54.76417],[-64.41245,-54.78272],[-64.41243,-54.78273],[-64.41243,-54.78273],[-64.41243,-54.78273],[-64.40315,-54.76441],[-64.42152,-54.75489],[-64.40789,-54.75229],[-64.3914,-54.74914],[-64.39172,-54.7518],[-64.3954,-54.7825],[-64.36661,-54.78483],[-64.36737,-54.81091],[-64.36737,-54.8109],[-64.36737,-54.81091],[-64.35826,-54.78683],[-64.35761,-54.78511],[-64.37574,-54.75147],[-64.35276,-54.74433],[-64.35174,-54.74157],[-64.34943,-54.74062],[-64.34225,-54.71589],[-64.3418,-54.71466],[-64.34013,-54.71821],[-64.34096,-54.72582],[-64.33646,-54.72604]]],[[[-64.03199,-54.80433],[-64.0372,-54.80373],[-64.0334,-54.802],[-64.03195,-54.80429],[-64.03199,-54.80433]]],[[[-64.23724,-54.83717],[-64.23686,-54.83705],[-64.23752,-54.83764],[-64.23724,-54.83717]]],[[[-64.70839,-54.79023],[-64.707,-54.79335],[-64.71061,-54.79091],[-64.70863,-54.78989],[-64.70839,-54.79023]]],[[[-64.42747,-54.76625],[-64.42799,-54.76666],[-64.43115,-54.7672],[-64.42763,-54.76608],[-64.42747,-54.76625]]],[[[-64.33864,-54.70342],[-64.33854,-54.70339],[-64.3388,-54.70581],[-64.33917,-54.70527],[-64.33864,-54.70342]]],[[[-64.23701,-54.7049],[-64.2367,-54.70505],[-64.24027,-54.70471],[-64.24869,-54.7039],[-64.24769,-54.69981],[-64.23701,-54.7049]]],[[[-64.25156,-54.69458],[-64.25461,-54.69695],[-64.25627,-54.69825],[-64.25641,-54.69221],[-64.25432,-54.69323],[-64.25156,-54.69458]]],[[[-64.24747,-54.67607],[-64.25887,-54.68619],[-64.26038,-54.68538],[-64.25851,-54.67753],[-64.24747,-54.67607]]],[[[-64.13484,-54.66601],[-64.13968,-54.6688],[-64.15533,-54.65631],[-64.16241,-54.65066],[-64.10912,-54.6512],[-64.13484,-54.66601]]],[[[-67.43687,-53.98433],[-67.43684,-53.98436],[-67.34584,-54.01328],[-67.33457,-54.01686],[-67.34127,-54.0218],[-67.34504,-54.02457],[-67.32971,-54.04137],[-67.15882,-54.11161],[-67.16439,-54.1198],[-67.0813,-54.13198],[-66.95468,-54.18192],[-66.9398,-54.1916],[-66.89996,-54.21751],[-66.73397,-54.26034],[-66.73795,-54.2631],[-66.7421,-54.26596],[-66.73975,-54.26898],[-66.73392,-54.27648],[-66.70879,-54.28023],[-66.69094,-54.2829],[-66.7046,-54.2909],[-66.7046,-54.2909],[-66.7046,-54.2909],[-66.69247,-54.29894],[-66.69396,-54.29967],[-66.70027,-54.30275],[-66.70027,-54.30275],[-66.70027,-54.30275],[-66.68433,-54.30608],[-66.67424,-54.32224],[-66.66101,-54.34344],[-66.56575,-54.39149],[-66.54413,-54.4024],[-66.55305,-54.40765],[-66.55674,-54.40982],[-66.55674,-54.40982],[-66.55674,-54.40982],[-66.55222,-54.42053],[-66.52582,-54.43815],[-66.465,-54.47873],[-66.465,-54.47873],[-66.465,-54.47873],[-66.46305,-54.47893],[-66.38404,-54.48701],[-66.36441,-54.50105],[-65.9169,-54.61241],[-65.87167,-54.62806],[-65.80278,-54.65191],[-65.73407,-54.65858],[-65.68418,-54.66343],[-65.59836,-54.65305],[-65.55117,-54.64734],[-65.52266,-54.66376],[-65.5199,-54.67756],[-65.5199,-54.67756],[-65.5199,-54.67756],[-65.51597,-54.66777],[-65.51119,-54.65586],[-65.5036,-54.65457],[-65.43082,-54.64215],[-65.44823,-54.65524],[-65.44823,-54.65524],[-65.44823,-54.65524],[-65.44159,-54.65792],[-65.42853,-54.66319],[-65.42853,-54.66319],[-65.42853,-54.66319],[-65.42607,-54.65745],[-65.42077,-54.64506],[-65.40188,-54.64035],[-65.23488,-54.61883],[-65.24544,-54.63053],[-65.24544,-54.63053],[-65.24544,-54.63053],[-65.23397,-54.63672],[-65.26148,-54.65295],[-65.26148,-54.65295],[-65.26148,-54.65295],[-65.25634,-54.66062],[-65.25453,-54.66332],[-65.24885,-54.6617],[-65.23902,-54.6589],[-65.23902,-54.6589],[-65.23902,-54.6589],[-65.23593,-54.64731],[-65.23435,-54.64138],[-65.12917,-54.65645],[-65.11676,-54.65823],[-65.19347,-54.69525],[-65.19347,-54.69525],[-65.19347,-54.69525],[-65.19252,-54.71153],[-65.192,-54.72052],[-65.21827,-54.74565],[-65.20841,-54.75388],[-65.19775,-54.76278],[-65.21293,-54.77411],[-65.20384,-54.78011],[-65.22896,-54.78672],[-65.26387,-54.7959],[-65.26386,-54.7959],[-65.26387,-54.79591],[-65.22634,-54.81548],[-65.22281,-54.81732],[-65.22835,-54.8243],[-65.23229,-54.82926],[-65.25942,-54.84395],[-65.31327,-54.87311],[-65.31098,-54.88905],[-65.30898,-54.90298],[-65.32948,-54.92074],[-65.3355,-54.92307],[-65.38214,-54.94107],[-65.4184,-54.93753],[-65.42862,-54.89356],[-65.42862,-54.89356],[-65.42862,-54.89356],[-65.45845,-54.88982],[-65.46828,-54.88859],[-65.46828,-54.88859],[-65.46828,-54.88859],[-65.47592,-54.89182],[-65.49941,-54.90177],[-65.49626,-54.91612],[-65.49417,-54.92566],[-65.51102,-54.93494],[-65.55785,-54.9485],[-65.56456,-54.93642],[-65.58545,-54.94039],[-65.60363,-54.94384],[-65.63684,-54.97001],[-65.69017,-54.97089],[-65.71901,-54.97136],[-65.71677,-54.9598],[-65.71182,-54.93429],[-65.71182,-54.93429],[-65.71182,-54.93429],[-65.73911,-54.90985],[-65.76607,-54.91305],[-65.7748,-54.90414],[-65.77743,-54.90146],[-65.77743,-54.90146],[-65.77743,-54.90146],[-65.79296,-54.90611],[-65.82455,-54.91556],[-65.82802,-54.91346],[-65.84716,-54.90192],[-65.87471,-54.90096],[-65.89182,-54.90037],[-65.91198,-54.91225],[-65.98239,-54.9026],[-65.98517,-54.90589],[-65.99575,-54.91842],[-65.95813,-54.94101],[-65.96368,-54.95248],[-65.97136,-54.96837],[-66.07767,-54.98909],[-66.10766,-54.99493],[-66.33409,-54.9965],[-66.33409,-54.9965],[-66.33409,-54.9965],[-66.33794,-54.99799],[-66.37082,-55.01073],[-66.35907,-55.02862],[-66.36913,-55.03704],[-66.37216,-55.03957],[-66.45025,-55.05751],[-66.52159,-55.05675],[-66.58613,-55.04226],[-66.64883,-55.02818],[-66.71867,-55.00534],[-66.76447,-54.96074],[-66.93402,-54.94178],[-67.15387,-54.89292],[-67.15388,-54.89292],[-67.15388,-54.89292],[-67.15388,-54.89292],[-67.17351,-54.89085],[-67.28219,-54.87936],[-67.28219,-54.87936],[-67.28219,-54.87936],[-67.27601,-54.88774],[-67.28232,-54.8822],[-67.28974,-54.87567],[-67.27202,-54.88013],[-67.27845,-54.86999],[-67.27845,-54.86999],[-67.27845,-54.86999],[-67.28944,-54.87134],[-67.29518,-54.87205],[-67.29518,-54.87205],[-67.29518,-54.87205],[-67.28801,-54.87773],[-67.28718,-54.87839],[-67.29677,-54.88394],[-67.30266,-54.88735],[-67.32927,-54.87605],[-67.35269,-54.86611],[-67.35268,-54.86611],[-67.35269,-54.86611],[-67.34224,-54.87496],[-67.34334,-54.8748],[-67.36673,-54.87148],[-67.36673,-54.87148],[-67.36673,-54.87148],[-67.34145,-54.88272],[-67.35942,-54.87976],[-67.40951,-54.88941],[-67.41642,-54.88113],[-67.44086,-54.88119],[-67.45052,-54.86564],[-67.45053,-54.86564],[-67.49506,-54.86721],[-67.49192,-54.86978],[-67.50629,-54.87462],[-67.49524,-54.86716],[-67.49488,-54.86692],[-67.50576,-54.85349],[-67.55183,-54.86637],[-67.60547,-54.88136],[-67.70346,-54.88603],[-67.72559,-54.88128],[-67.82583,-54.85974],[-68.03331,-54.85021],[-68.05423,-54.84342],[-68.10519,-54.82686],[-68.20128,-54.81651],[-68.23463,-54.80135],[-68.24853,-54.79503],[-68.276,-54.80153],[-68.31521,-54.8108],[-68.3152,-54.8108],[-68.31521,-54.8108],[-68.30264,-54.81463],[-68.29879,-54.8158],[-68.30218,-54.82524],[-68.30464,-54.83208],[-68.30464,-54.83208],[-68.30464,-54.83208],[-68.26531,-54.83522],[-68.2606,-54.84071],[-68.31035,-54.84892],[-68.3167,-54.84559],[-68.32477,-54.84136],[-68.31292,-54.83336],[-68.33027,-54.82979],[-68.44434,-54.85838],[-68.48178,-54.84668],[-68.5222,-54.85794],[-68.52484,-54.85768],[-68.56983,-54.84391],[-68.57713,-54.85442],[-68.55564,-54.86281],[-68.501,-54.86691],[-68.56168,-54.89054],[-68.60942,-54.89396],[-68.59641,-54.87298],[-68.59583,-54.83991],[-68.59513,-54.79962],[-68.60771,-54.45565],[-68.60762,-54.00271],[-68.48272,-54.0022],[-68.42168,-54.03085],[-68.14168,-54.05642],[-68.10653,-54.08207],[-68.04579,-54.08311],[-67.83434,-54.021],[-67.66938,-53.94358],[-67.50341,-53.94058],[-67.43687,-53.98433]]],[[[-67.47325,-54.8693],[-67.47329,-54.86919],[-67.47287,-54.86924],[-67.47325,-54.8693]]],[[[-71.62642,-51.93099],[-71.62483,-51.96447],[-71.65001,-51.9998],[-71.92156,-51.99994],[-71.96447,-51.97283],[-71.96447,-51.97283],[-72.00427,-51.97951],[-72.03004,-51.96468],[-72.03107,-51.9615],[-71.94674,-51.92277],[-71.93207,-51.91993],[-71.93336,-51.91663],[-71.92884,-51.91455],[-71.94783,-51.87491],[-71.95062,-51.87261],[-71.95101,-51.87162],[-71.99564,-51.8341],[-71.8852,-51.81449],[-71.74688,-51.86192],[-71.62642,-51.93099]]],[[[-72.01456,-51.32586],[-72.01765,-51.47963],[-71.78271,-51.58574],[-71.27646,-51.74446],[-71.24358,-51.77575],[-71.25172,-51.82907],[-71.41341,-51.82887],[-71.54053,-51.78238],[-71.6379,-51.77654],[-72.153,-51.56207],[-72.20073,-51.63115],[-72.30063,-51.63221],[-72.31915,-51.62546],[-72.3238,-51.60295],[-72.32702,-51.58734],[-72.32702,-51.58734],[-72.32702,-51.58734],[-72.37704,-51.58445],[-72.38751,-51.59398],[-72.38871,-51.59507],[-72.44207,-51.58458],[-72.42631,-51.54686],[-72.39401,-51.52744],[-72.39509,-51.52608],[-72.40518,-51.51339],[-72.37991,-51.51646],[-72.34466,-51.52074],[-72.34587,-51.51375],[-72.35091,-51.48454],[-72.32405,-51.47496],[-72.32405,-51.47496],[-72.32405,-51.47496],[-72.32466,-51.47403],[-72.34087,-51.44959],[-72.33826,-51.42483],[-72.30994,-51.40315],[-72.30994,-51.40315],[-72.30994,-51.40315],[-72.30897,-51.36645],[-72.32608,-51.34568],[-72.32608,-51.34568],[-72.32608,-51.34568],[-72.32608,-51.34568],[-72.36065,-51.34281],[-72.36793,-51.3385],[-72.3639,-51.32478],[-72.36182,-51.32171],[-72.35034,-51.31695],[-72.3078,-51.30747],[-72.30699,-51.29895],[-72.26918,-51.28325],[-72.26917,-51.28323],[-72.25949,-51.25404],[-72.26087,-51.2524],[-72.25866,-51.24417],[-72.27433,-51.23486],[-72.15127,-51.23759],[-72.01456,-51.32586]]],[[[-71.72285,-46.76623],[-71.77818,-47.05456],[-71.83402,-47.08632],[-71.80564,-47.17844],[-72.19138,-47.82635],[-72.22192,-48.06572],[-72.19069,-48.10202],[-72.2092,-48.25494],[-72.17622,-48.29251],[-72.1761,-48.36531],[-72.05686,-48.47667],[-72.06367,-48.53358],[-72.18755,-48.53293],[-72.29883,-48.48869],[-72.32584,-48.53255],[-72.39145,-48.56829],[-72.44774,-48.8396],[-72.43783,-48.94516],[-72.62882,-49.23623],[-72.65572,-49.34089],[-72.76907,-49.44765],[-72.79906,-49.59745],[-72.86671,-49.68653],[-72.90974,-49.91074],[-72.87644,-50.00105],[-72.88975,-50.10649],[-72.85098,-50.13386],[-72.78708,-50.36321],[-72.55001,-50.62231],[-72.57144,-50.64637],[-72.57506,-50.64632],[-72.57501,-50.65038],[-72.57966,-50.6556],[-72.57461,-50.679],[-72.58913,-50.68092],[-72.59469,-50.68166],[-72.62332,-50.65737],[-72.62332,-50.65737],[-72.62332,-50.65737],[-72.65578,-50.66396],[-72.66554,-50.65561],[-72.68093,-50.64245],[-72.69347,-50.64465],[-72.69842,-50.64552],[-72.72974,-50.61495],[-72.73318,-50.61612],[-72.73358,-50.61578],[-72.73393,-50.61638],[-72.76586,-50.62729],[-72.77412,-50.62745],[-72.89144,-50.67018],[-72.89144,-50.67018],[-72.89144,-50.67018],[-72.89255,-50.67231],[-72.90546,-50.69719],[-72.95202,-50.71838],[-72.95202,-50.71838],[-72.95202,-50.71838],[-72.94454,-50.72441],[-72.94405,-50.72481],[-72.95427,-50.74031],[-72.9547,-50.74096],[-72.95969,-50.743],[-73.00629,-50.76202],[-73.04199,-50.76129],[-73.04199,-50.76129],[-73.04199,-50.76129],[-73.0697,-50.78888],[-73.07818,-50.78405],[-73.09692,-50.77338],[-73.16199,-50.80244],[-73.20349,-50.82098],[-73.26752,-50.82397],[-73.27039,-50.81802],[-73.28491,-50.7879],[-73.25598,-50.75012],[-73.25598,-50.75012],[-73.25598,-50.75012],[-73.28601,-50.7395],[-73.24861,-50.72488],[-73.18591,-50.70038],[-73.17273,-50.6767],[-73.17273,-50.6767],[-73.17273,-50.6767],[-73.21437,-50.66485],[-73.27081,-50.6488],[-73.26977,-50.64251],[-73.2674,-50.62811],[-73.2887,-50.586],[-73.33083,-50.56886],[-73.33191,-50.56842],[-73.34098,-50.55977],[-73.38641,-50.51642],[-73.3656,-50.50751],[-73.3645,-50.48792],[-73.3645,-50.48792],[-73.3645,-50.48792],[-73.40617,-50.48497],[-73.43261,-50.48309],[-73.4079,-50.46771],[-73.40369,-50.45081],[-73.42249,-50.44263],[-73.42052,-50.43456],[-73.41931,-50.42963],[-73.41931,-50.42963],[-73.41931,-50.42963],[-73.43701,-50.42438],[-73.45538,-50.39258],[-73.45538,-50.39258],[-73.45538,-50.39258],[-73.48639,-50.38208],[-73.46991,-50.34448],[-73.46991,-50.34448],[-73.46991,-50.34448],[-73.48071,-50.32568],[-73.51678,-50.289],[-73.56543,-50.27069],[-73.54999,-50.22821],[-73.56,-50.21692],[-73.55518,-50.18439],[-73.55041,-50.18005],[-73.52081,-50.15308],[-73.5415,-50.11902],[-73.50921,-50.09578],[-73.4895,-50.0816],[-73.4895,-50.0816],[-73.4895,-50.0816],[-73.48291,-50.05408],[-73.48291,-50.05408],[-73.48291,-50.05408],[-73.53369,-50.0423],[-73.56659,-50.02039],[-73.53492,-49.99259],[-73.50519,-49.96649],[-73.50519,-49.96649],[-73.50519,-49.96649],[-73.54388,-49.9494],[-73.55261,-49.92389],[-73.51165,-49.87689],[-73.49048,-49.8526],[-73.49236,-49.84553],[-73.49969,-49.81799],[-73.44531,-49.79388],[-73.44531,-49.79388],[-73.44531,-49.79388],[-73.46191,-49.77782],[-73.46619,-49.77368],[-73.43878,-49.75781],[-73.43878,-49.75781],[-73.43878,-49.75781],[-73.45601,-49.73952],[-73.47638,-49.7179],[-73.49994,-49.70875],[-73.50909,-49.7052],[-73.50433,-49.69908],[-73.4986,-49.69171],[-73.50458,-49.6629],[-73.48775,-49.65437],[-73.46411,-49.6424],[-73.46368,-49.6189],[-73.49219,-49.57922],[-73.51046,-49.57289],[-73.53601,-49.56403],[-73.54625,-49.54461],[-73.54968,-49.53809],[-73.53961,-49.49823],[-73.53776,-49.49831],[-73.48779,-49.50049],[-73.47808,-49.49319],[-73.46381,-49.48248],[-73.46685,-49.4784],[-73.47961,-49.4613],[-73.47715,-49.4527],[-73.47388,-49.44128],[-73.47388,-49.44128],[-73.47388,-49.44128],[-73.48473,-49.43303],[-73.49042,-49.42871],[-73.47726,-49.41637],[-73.46002,-49.40021],[-73.42621,-49.39191],[-73.42621,-49.39191],[-73.42621,-49.39191],[-73.42908,-49.34399],[-73.41968,-49.3315],[-73.41058,-49.3194],[-73.41058,-49.3194],[-73.41058,-49.3194],[-73.41061,-49.31938],[-73.49383,-49.27002],[-73.49419,-49.26139],[-73.47477,-49.20795],[-73.47213,-49.20351],[-73.14368,-49.271],[-73.0752,-49.27287],[-73.04559,-49.27368],[-73.0456,-49.27368],[-73.04559,-49.27368],[-73.06745,-49.26338],[-73.08937,-49.25306],[-73.08937,-49.25306],[-73.08937,-49.25306],[-73.09666,-49.26022],[-73.10355,-49.26698],[-73.13319,-49.26718],[-73.14522,-49.24722],[-73.14537,-49.20651],[-73.14543,-49.19015],[-73.12795,-49.17128],[-73.11009,-49.15199],[-73.08364,-49.13849],[-73.06215,-49.12752],[-73.06215,-49.12752],[-73.06215,-49.12752],[-73.05136,-49.09828],[-73.04493,-49.08087],[-73.00491,-49.06345],[-73.01384,-49.03619],[-73.00835,-49.035],[-72.98137,-49.02916],[-72.9886,-48.99507],[-72.96209,-48.9817],[-72.95973,-48.98097],[-72.95957,-48.98043],[-72.95879,-48.98004],[-72.9475,-48.94857],[-72.93152,-48.94008],[-72.92065,-48.93605],[-72.86487,-48.94663],[-72.85062,-48.96609],[-72.85062,-48.96609],[-72.85062,-48.96609],[-72.79459,-48.96808],[-72.76632,-48.94573],[-72.76175,-48.93682],[-72.74814,-48.91029],[-72.69933,-48.89749],[-72.69906,-48.89669],[-72.69435,-48.89539],[-72.69203,-48.87561],[-72.68934,-48.86755],[-72.63694,-48.86725],[-72.53337,-48.7995],[-72.53398,-48.79564],[-72.53052,-48.79333],[-72.54262,-48.74045],[-72.54263,-48.74039],[-72.53894,-48.7019],[-72.53544,-48.66547],[-72.57183,-48.53661],[-72.58575,-48.48732],[-72.54058,-48.48313],[-72.53572,-48.48268],[-72.50339,-48.5175],[-72.50242,-48.51855],[-72.44159,-48.51409],[-72.39358,-48.483],[-72.38333,-48.46606],[-72.37351,-48.44982],[-72.37351,-48.44982],[-72.37351,-48.44982],[-72.39823,-48.43789],[-72.40891,-48.43273],[-72.40641,-48.41608],[-72.34776,-48.3902],[-72.34776,-48.3902],[-72.34776,-48.3902],[-72.37697,-48.37154],[-72.38069,-48.35013],[-72.36734,-48.3484],[-72.34355,-48.34533],[-72.27798,-48.36261],[-72.2621,-48.35646],[-72.24107,-48.34832],[-72.22674,-48.32197],[-72.22701,-48.3217],[-72.22641,-48.32056],[-72.3167,-48.23401],[-72.31855,-48.23023],[-72.32581,-48.21546],[-72.30711,-48.20121],[-72.29908,-48.15863],[-72.32716,-48.11602],[-72.35503,-48.10101],[-72.36031,-48.0736],[-72.36096,-48.07365],[-72.36102,-48.07332],[-72.41671,-48.07786],[-72.44379,-48.06435],[-72.41878,-48.00272],[-72.42204,-47.98652],[-72.42499,-47.96884],[-72.42565,-47.9686],[-72.42597,-47.96699],[-72.43122,-47.96656],[-72.46051,-47.95584],[-72.49837,-47.96062],[-72.5274,-47.93775],[-72.49797,-47.87514],[-72.47688,-47.87093],[-72.46841,-47.81442],[-72.46813,-47.81274],[-72.47523,-47.80877],[-72.49562,-47.79728],[-72.52305,-47.74086],[-72.51035,-47.74667],[-72.48442,-47.75908],[-72.47321,-47.75851],[-72.46606,-47.73789],[-72.44272,-47.7461],[-72.44227,-47.74532],[-72.44207,-47.74538],[-72.43851,-47.73874],[-72.43553,-47.73351],[-72.43562,-47.73334],[-72.43539,-47.73291],[-72.4503,-47.70522],[-72.43924,-47.70155],[-72.41764,-47.69461],[-72.41751,-47.69435],[-72.41743,-47.69432],[-72.41315,-47.68539],[-72.40935,-47.67758],[-72.41837,-47.66527],[-72.42077,-47.66169],[-72.39834,-47.65853],[-72.39829,-47.65847],[-72.39816,-47.65845],[-72.37982,-47.636],[-72.37186,-47.63591],[-72.35342,-47.63619],[-72.3091,-47.59084],[-72.32697,-47.57143],[-72.31555,-47.55235],[-72.29114,-47.51189],[-72.3078,-47.48013],[-72.30818,-47.48017],[-72.30851,-47.47955],[-72.32692,-47.48166],[-72.3306,-47.47516],[-72.34097,-47.45611],[-72.29343,-47.44624],[-72.24448,-47.40609],[-72.19735,-47.41704],[-72.18086,-47.40671],[-72.16134,-47.39492],[-72.12832,-47.32872],[-72.04736,-47.3403],[-72.03624,-47.31955],[-71.99785,-47.29664],[-71.99811,-47.29596],[-71.99645,-47.29495],[-72.0163,-47.24806],[-72.0102,-47.23511],[-72.00091,-47.21757],[-72.00158,-47.21684],[-72.00086,-47.21531],[-72.01784,-47.19925],[-72.01861,-47.19842],[-71.86475,-47.23057],[-71.86597,-47.22977],[-71.86436,-47.2301],[-71.89385,-47.21153],[-71.8947,-47.21098],[-71.87995,-47.20547],[-71.88019,-47.20477],[-71.87992,-47.20466],[-71.88324,-47.19593],[-71.88882,-47.17975],[-71.8815,-47.17667],[-71.85048,-47.16419],[-71.85064,-47.16366],[-71.85052,-47.16361],[-71.86021,-47.13086],[-71.88064,-47.10686],[-71.9539,-47.07643],[-71.95405,-47.07606],[-71.90399,-47.05095],[-71.88004,-47.0101],[-71.89168,-47.00075],[-71.89647,-46.99626],[-71.89732,-46.99622],[-71.89753,-46.99605],[-71.93202,-46.9944],[-71.92435,-46.98919],[-71.91827,-46.98536],[-71.92986,-46.97774],[-71.93005,-46.97772],[-71.93089,-46.97717],[-71.94857,-46.97542],[-71.95762,-46.97429],[-71.95149,-46.95739],[-71.9707,-46.90536],[-71.93507,-46.87164],[-71.93134,-46.86816],[-71.93134,-46.86811],[-71.93116,-46.86794],[-71.93155,-46.86319],[-71.9325,-46.84025],[-71.95489,-46.81497],[-71.94135,-46.80918],[-71.91409,-46.799],[-71.83289,-46.79776],[-71.77246,-46.76761],[-71.73309,-46.73569],[-71.66559,-46.69466],[-71.65884,-46.69377],[-71.72285,-46.76623]]],[[[-71.75212,-46.23157],[-71.76466,-46.2191],[-71.7801,-46.19723],[-71.78694,-46.19694],[-71.79302,-46.1909],[-71.80589,-46.19615],[-71.85974,-46.19388],[-71.8747,-46.16133],[-71.86869,-46.15854],[-71.86651,-46.15787],[-71.86516,-46.15689],[-71.86507,-46.15685],[-71.86511,-46.15686],[-71.86492,-46.15672],[-71.86748,-46.15724],[-71.89828,-46.16222],[-71.91465,-46.13992],[-71.85637,-46.12089],[-71.82432,-46.1107],[-71.79173,-46.12008],[-71.78545,-46.12213],[-71.78523,-46.12195],[-71.785,-46.12202],[-71.74738,-46.09199],[-71.73515,-46.09756],[-71.75212,-46.23157]]],[[[-71.55261,-45.79752],[-71.60083,-45.81902],[-71.64816,-45.90314],[-71.65023,-45.90129],[-71.65259,-45.88976],[-71.67965,-45.87492],[-71.6904,-45.86529],[-71.70073,-45.86336],[-71.7156,-45.85521],[-71.76364,-45.84712],[-71.76534,-45.84052],[-71.74227,-45.80611],[-71.74436,-45.80417],[-71.74327,-45.80259],[-71.76126,-45.78784],[-71.75844,-45.78058],[-71.75431,-45.77063],[-71.77121,-45.74376],[-71.77122,-45.74374],[-71.80032,-45.71986],[-71.79643,-45.71434],[-71.77501,-45.69425],[-71.77305,-45.68124],[-71.77315,-45.68117],[-71.79493,-45.66536],[-71.77198,-45.64102],[-71.77956,-45.62182],[-71.7706,-45.61853],[-71.74815,-45.61028],[-71.73122,-45.5845],[-71.7266,-45.57746],[-71.74677,-45.577],[-71.76295,-45.57664],[-71.76348,-45.56161],[-71.76353,-45.56031],[-71.74431,-45.54215],[-71.73212,-45.53931],[-71.68259,-45.52777],[-71.68259,-45.52777],[-71.68259,-45.52777],[-71.68213,-45.51508],[-71.6243,-45.51909],[-71.55956,-45.52358],[-71.49725,-45.50333],[-71.55261,-45.79752]]],[[[-71.4628,-44.74465],[-71.39449,-44.79002],[-71.38858,-44.7914],[-71.38771,-44.7921],[-71.50452,-45.08441],[-71.5108,-45.0957],[-71.52002,-45.1012],[-71.51246,-45.08252],[-71.50542,-45.07221],[-71.50761,-45.07051],[-71.50658,-45.06797],[-71.55799,-45.03148],[-71.54882,-45.01465],[-71.54095,-45.0002],[-71.55138,-44.98756],[-71.55972,-44.97745],[-71.65729,-44.97559],[-71.68942,-44.96336],[-71.71107,-44.95512],[-71.74211,-44.95835],[-71.74448,-44.9519],[-71.75384,-44.92648],[-71.75384,-44.92648],[-71.75384,-44.92648],[-71.76402,-44.93225],[-71.77815,-44.94026],[-71.81722,-44.91979],[-71.81722,-44.91979],[-71.81722,-44.91979],[-71.85444,-44.93231],[-71.85444,-44.93231],[-71.85444,-44.93231],[-71.87537,-44.95457],[-71.87991,-44.95939],[-71.88353,-44.94597],[-71.92498,-44.94421],[-71.93686,-44.93196],[-71.94789,-44.92058],[-71.95446,-44.92033],[-71.97736,-44.91944],[-71.9781,-44.9132],[-71.97925,-44.90356],[-71.97925,-44.90356],[-71.97925,-44.90356],[-72.03588,-44.90284],[-72.05368,-44.88731],[-72.06524,-44.87646],[-72.03681,-44.8637],[-72.03797,-44.86308],[-72.03635,-44.86233],[-72.05005,-44.85655],[-72.0645,-44.84875],[-72.02701,-44.80586],[-72.02698,-44.80582],[-72.02698,-44.80582],[-72.02698,-44.80582],[-72.07392,-44.78107],[-72.06386,-44.75941],[-72.05396,-44.75882],[-72.03242,-44.76545],[-72.01816,-44.75666],[-72.01206,-44.76997],[-72.00549,-44.7843],[-71.95679,-44.78601],[-71.9275,-44.80404],[-71.91461,-44.77661],[-71.8917,-44.78659],[-71.8598,-44.80048],[-71.82933,-44.7954],[-71.81546,-44.79309],[-71.82458,-44.77494],[-71.78648,-44.75226],[-71.73593,-44.76879],[-71.7115,-44.76691],[-71.68698,-44.76502],[-71.66835,-44.78505],[-71.66634,-44.78721],[-71.63082,-44.78328],[-71.59538,-44.77936],[-71.59538,-44.77936],[-71.59538,-44.77936],[-71.59192,-44.77256],[-71.5816,-44.75226],[-71.57099,-44.75734],[-71.56688,-44.75931],[-71.48032,-44.73854],[-71.4628,-44.74465]]],[[[-70.95077,-36.86366],[-70.99972,-36.90815],[-71.01378,-37.03168],[-71.05827,-37.07394],[-71.02847,-37.16353],[-70.9945,-37.19123],[-70.99114,-37.23076],[-70.9555,-37.25613],[-70.96223,-37.29046],[-71.00394,-37.2887],[-71.08605,-37.35441],[-71.02905,-37.5299],[-71.07294,-37.58053],[-71.00864,-37.71695],[-71.01376,-37.88143],[-70.98988,-37.92899],[-71.02086,-37.96347],[-70.96365,-38.03155],[-70.96045,-38.07346],[-70.92767,-38.10229],[-70.92152,-38.14551],[-70.88289,-38.17816],[-70.87965,-38.22007],[-70.7096,-38.39771],[-70.73886,-38.54333],[-70.68732,-38.59195],[-70.75577,-38.63812],[-70.67512,-38.70821],[-70.62246,-38.78909],[-70.70155,-38.9017],[-70.95738,-38.84694],[-71.01729,-38.8742],[-71.05508,-38.93343],[-71.08038,-39.09463],[-71.01081,-39.19312],[-71.02436,-39.42524],[-70.99641,-39.46464],[-70.99675,-39.53384],[-70.96815,-39.58638],[-70.96813,-39.65083],[-70.93571,-39.69398],[-71.02933,-39.81287],[-71.12023,-39.80769],[-71.16083,-39.77128],[-71.24641,-39.75788],[-71.29263,-39.77607],[-71.29565,-39.8153],[-71.22179,-39.8819],[-71.14823,-39.89236],[-71.13464,-39.93831],[-71.04424,-39.9948],[-71.05102,-40.04462],[-71.1116,-40.06582],[-71.06702,-40.09285],[-71.07318,-40.1964],[-71.12469,-40.21918],[-71.13985,-40.31636],[-71.17905,-40.33966],[-71.21065,-40.4862],[-71.29216,-40.52903],[-71.31301,-40.71302],[-71.36771,-40.82741],[-71.26763,-41.0504],[-71.27325,-41.12054],[-71.19834,-41.19078],[-71.06342,-41.4271],[-71.06387,-41.49391],[-71.02794,-41.52174],[-71.02278,-41.57805],[-71.07711,-41.66276],[-71.12695,-41.68918],[-71.18566,-41.78558],[-71.20676,-41.88843],[-71.29765,-42.00239],[-71.35907,-42.48276],[-71.26937,-42.43204],[-71.24313,-42.38791],[-71.19162,-42.38787],[-71.17473,-42.41728],[-71.19267,-42.55607],[-71.24258,-42.59316],[-71.28924,-42.59101],[-71.48357,-42.799],[-71.54289,-43.18868],[-71.35235,-43.26579],[-71.26952,-43.27084],[-71.20335,-43.31802],[-71.22163,-43.51167],[-71.27433,-43.5331],[-71.30606,-43.80009],[-71.35233,-43.83849],[-71.39339,-44.0191],[-71.42618,-44.05214],[-71.45348,-44.20475],[-71.50523,-44.22612],[-71.52076,-44.39657],[-71.55173,-44.40895],[-71.55179,-44.40897],[-71.61724,-44.39849],[-71.61731,-44.39851],[-71.6615,-44.40699],[-71.71169,-44.37922],[-71.76063,-44.40664],[-71.77644,-44.4115],[-71.81506,-44.41612],[-71.81507,-44.41612],[-71.80433,-44.39914],[-71.81626,-44.39418],[-71.82084,-44.39228],[-71.81751,-44.37748],[-71.81751,-44.37748],[-71.81751,-44.37748],[-71.83407,-44.36934],[-71.83902,-44.34998],[-71.83894,-44.34995],[-71.78848,-44.33313],[-71.78851,-44.33101],[-71.78697,-44.33043],[-71.78858,-44.32731],[-71.78874,-44.31816],[-71.80875,-44.28823],[-71.80876,-44.28821],[-71.80312,-44.27169],[-71.80312,-44.27169],[-71.80312,-44.27169],[-71.82884,-44.26554],[-71.82954,-44.26537],[-71.80636,-44.25811],[-71.80636,-44.25811],[-71.80636,-44.25811],[-71.80657,-44.25349],[-71.80772,-44.22806],[-71.79624,-44.22355],[-71.78002,-44.21719],[-71.78003,-44.21719],[-71.78002,-44.21719],[-71.78838,-44.21613],[-71.80064,-44.21458],[-71.79988,-44.1917],[-71.84667,-44.15924],[-71.84866,-44.11353],[-71.79618,-44.11196],[-71.78134,-44.11151],[-71.75943,-44.09961],[-71.71898,-44.03454],[-71.67956,-43.97114],[-71.66637,-43.96033],[-71.64878,-43.94593],[-71.64878,-43.94592],[-71.64878,-43.94592],[-71.65484,-43.93058],[-71.66643,-43.90123],[-71.68148,-43.89875],[-71.70738,-43.89449],[-71.70872,-43.85574],[-71.71346,-43.85655],[-71.73196,-43.8597],[-71.74586,-43.85107],[-71.76275,-43.84058],[-71.75342,-43.78818],[-71.69672,-43.72608],[-71.68197,-43.72324],[-71.6611,-43.71922],[-71.66036,-43.70238],[-71.6319,-43.70809],[-71.63009,-43.69859],[-71.60421,-43.69721],[-71.59978,-43.69697],[-71.60112,-43.69467],[-71.612,-43.67604],[-71.58884,-43.67546],[-71.58829,-43.67545],[-71.58652,-43.6693],[-71.58146,-43.65168],[-71.62629,-43.62371],[-71.70346,-43.62525],[-71.70798,-43.5845],[-71.71821,-43.57635],[-71.71821,-43.57635],[-71.71821,-43.57635],[-71.75741,-43.58423],[-71.77652,-43.53869],[-71.87748,-43.55108],[-71.87775,-43.54472],[-71.87849,-43.52753],[-71.84863,-43.48289],[-71.87441,-43.45802],[-71.88138,-43.4513],[-71.92532,-43.45876],[-71.93109,-43.4525],[-71.93423,-43.4491],[-71.92986,-43.44205],[-71.91411,-43.41665],[-71.93321,-43.38656],[-71.92366,-43.38499],[-71.89374,-43.38009],[-71.89374,-43.38009],[-71.89374,-43.38009],[-71.9004,-43.34369],[-71.90439,-43.32189],[-71.8401,-43.33521],[-71.7864,-43.29697],[-71.75521,-43.31764],[-71.7346,-43.31433],[-71.7346,-43.31433],[-71.7346,-43.31433],[-71.73156,-43.28867],[-71.7308,-43.28224],[-71.73747,-43.26864],[-71.75725,-43.22827],[-71.7292,-43.20025],[-71.76053,-43.16462],[-71.78371,-43.16878],[-71.81508,-43.14568],[-71.82903,-43.14466],[-71.85734,-43.14258],[-71.85299,-43.12711],[-71.85299,-43.12711],[-71.85299,-43.12711],[-71.86471,-43.12708],[-71.88637,-43.12703],[-71.89268,-43.10702],[-71.9329,-43.10213],[-71.9433,-43.09242],[-71.93714,-43.05747],[-71.93631,-43.05277],[-71.93631,-43.05277],[-71.93631,-43.05277],[-71.95225,-43.04908],[-72.00262,-43.03741],[-72.03617,-43.01339],[-72.03767,-42.99761],[-72.03815,-42.99256],[-72.05717,-42.98294],[-72.0732,-42.94961],[-72.11619,-42.93632],[-72.11413,-42.92261],[-72.11413,-42.92261],[-72.11413,-42.92261],[-72.14255,-42.89987],[-72.11829,-42.8817],[-72.13271,-42.85534],[-72.13415,-42.85272],[-72.14788,-42.85002],[-72.16485,-42.79884],[-72.16502,-42.79831],[-72.1522,-42.79657],[-72.1427,-42.79528],[-72.13133,-42.77713],[-72.13133,-42.77713],[-72.13133,-42.77713],[-72.14716,-42.74156],[-72.13369,-42.734],[-72.12842,-42.73105],[-72.13821,-42.71116],[-72.13821,-42.71116],[-72.13821,-42.71116],[-72.14553,-42.70917],[-72.17324,-42.70162],[-72.1787,-42.6892],[-72.17224,-42.67164],[-72.17223,-42.67164],[-72.14812,-42.6814],[-72.14107,-42.67893],[-72.1359,-42.68014],[-72.13089,-42.67535],[-72.12264,-42.67245],[-72.09969,-42.64554],[-72.09603,-42.64204],[-72.09648,-42.64177],[-72.09625,-42.6415],[-72.11763,-42.62884],[-72.11851,-42.60296],[-72.07528,-42.5664],[-72.06906,-42.56601],[-72.05135,-42.56512],[-72.05374,-42.54547],[-72.02867,-42.51462],[-72.01211,-42.49491],[-72.01356,-42.49315],[-72.03415,-42.45659],[-72.04699,-42.45271],[-72.0475,-42.45209],[-72.02799,-42.40792],[-72.02854,-42.40764],[-72.02849,-42.40752],[-72.07722,-42.38247],[-72.11272,-42.3983],[-72.12328,-42.39059],[-72.13179,-42.38416],[-72.13828,-42.32752],[-72.12073,-42.32422],[-72.12089,-42.324],[-72.12084,-42.32399],[-72.12796,-42.31433],[-72.16793,-42.25967],[-72.1536,-42.24342],[-72.15373,-42.2431],[-72.15366,-42.24302],[-72.16626,-42.21397],[-72.16632,-42.21383],[-72.1656,-42.21232],[-72.15593,-42.20008],[-72.15873,-42.19778],[-72.15681,-42.19373],[-72.18211,-42.17859],[-72.18428,-42.17681],[-72.18453,-42.17582],[-72.17626,-42.14547],[-72.17381,-42.14231],[-72.12717,-42.15364],[-72.1229,-42.15501],[-72.10265,-42.15204],[-72.06727,-42.14743],[-72.06765,-42.14691],[-72.06651,-42.14674],[-72.079,-42.12964],[-72.05853,-42.11768],[-72.05222,-42.11405],[-72.04073,-42.12046],[-72.00686,-42.14008],[-71.9642,-42.1411],[-71.95754,-42.14131],[-71.95459,-42.16439],[-71.94416,-42.17319],[-71.92466,-42.19028],[-71.92411,-42.19011],[-71.92375,-42.19041],[-71.8932,-42.18085],[-71.89291,-42.18076],[-71.89291,-42.18076],[-71.89285,-42.18074],[-71.87462,-42.15493],[-71.85276,-42.159],[-71.83475,-42.16257],[-71.83446,-42.16241],[-71.83415,-42.16247],[-71.80308,-42.14562],[-71.78173,-42.14808],[-71.78162,-42.14764],[-71.78009,-42.14779],[-71.77701,-42.13023],[-71.74751,-42.13046],[-71.74748,-42.13043],[-71.7468,-42.13044],[-71.72548,-42.10991],[-71.74059,-42.08302],[-71.72619,-42.04829],[-71.72802,-42.04757],[-71.72765,-42.04664],[-71.74323,-42.04161],[-71.75646,-42.03642],[-71.75692,-42.03544],[-71.7547,-42.02372],[-71.79378,-41.96155],[-71.79341,-41.94414],[-71.78969,-41.94173],[-71.77214,-41.93085],[-71.79748,-41.84263],[-71.79078,-41.83091],[-71.78349,-41.82971],[-71.75137,-41.82493],[-71.75167,-41.82452],[-71.75151,-41.82449],[-71.75891,-41.81449],[-71.77379,-41.79392],[-71.76696,-41.79148],[-71.75393,-41.78745],[-71.75442,-41.787],[-71.75363,-41.78672],[-71.76688,-41.77548],[-71.77525,-41.76773],[-71.78418,-41.73495],[-71.78445,-41.73481],[-71.78446,-41.73475],[-71.80169,-41.72531],[-71.81005,-41.7207],[-71.79371,-41.69503],[-71.79446,-41.69487],[-71.79438,-41.69474],[-71.81697,-41.6899],[-71.81779,-41.67003],[-71.81779,-41.66993],[-71.81779,-41.66993],[-71.81779,-41.66993],[-71.83336,-41.66692],[-71.83667,-41.64989],[-71.83656,-41.64564],[-71.85539,-41.6453],[-71.85711,-41.64512],[-71.88534,-41.6063],[-71.84778,-41.56673],[-71.81763,-41.5756],[-71.81791,-41.57511],[-71.81764,-41.57521],[-71.852,-41.51496],[-71.8488,-41.51025],[-71.82801,-41.48101],[-71.84331,-41.4518],[-71.84325,-41.45164],[-71.82701,-41.4435],[-71.83763,-41.4372],[-71.83583,-41.43258],[-71.86329,-41.42123],[-71.86522,-41.4038],[-71.8651,-41.39772],[-71.86597,-41.39701],[-71.86635,-41.3936],[-71.91006,-41.35771],[-71.9117,-41.34788],[-71.91208,-41.34057],[-71.91185,-41.34045],[-71.89946,-41.34099],[-71.89131,-41.32936],[-71.88165,-41.32414],[-71.87602,-41.30739],[-71.87751,-41.30533],[-71.89187,-41.27077],[-71.88822,-41.2644],[-71.89694,-41.25522],[-71.85692,-41.25749],[-71.84148,-41.26727],[-71.83444,-41.27203],[-71.83507,-41.27133],[-71.83435,-41.27179],[-71.84456,-41.26083],[-71.85622,-41.24794],[-71.84573,-41.24305],[-71.85521,-41.23671],[-71.85932,-41.23362],[-71.85403,-41.2146],[-71.8553,-41.21405],[-71.85525,-41.21385],[-71.87224,-41.20678],[-71.87361,-41.20619],[-71.88736,-41.16808],[-71.83936,-41.1504],[-71.83949,-41.14955],[-71.83942,-41.14952],[-71.83623,-41.11823],[-71.84613,-41.1059],[-71.84794,-41.09399],[-71.81851,-41.06266],[-71.81794,-41.06229],[-71.81804,-41.06217],[-71.81793,-41.06205],[-71.83914,-41.0359],[-71.83936,-41.03585],[-71.83936,-41.03584],[-71.8394,-41.03584],[-71.8607,-41.03073],[-71.87519,-40.99919],[-71.87547,-40.99907],[-71.87551,-40.999],[-71.87856,-40.99772],[-71.9063,-40.98561],[-71.90488,-40.96664],[-71.90109,-40.96161],[-71.85644,-40.96002],[-71.86903,-40.89305],[-71.85865,-40.88117],[-71.85956,-40.88118],[-71.85818,-40.87948],[-71.87571,-40.88139],[-71.87929,-40.88144],[-71.8842,-40.87748],[-71.92374,-40.83724],[-71.93215,-40.82593],[-71.93471,-40.82168],[-71.92098,-40.78585],[-71.92227,-40.78493],[-71.96023,-40.75053],[-71.96418,-40.73226],[-71.96344,-40.72569],[-71.94416,-40.70885],[-71.86688,-40.66316],[-71.86691,-40.66273],[-71.844,-40.62756],[-71.84395,-40.62701],[-71.84325,-40.62638],[-71.84064,-40.5979],[-71.82383,-40.57791],[-71.82524,-40.57855],[-71.82459,-40.57777],[-71.85644,-40.59195],[-71.87591,-40.57138],[-71.89003,-40.55604],[-71.8588,-40.55523],[-71.8588,-40.55488],[-71.85823,-40.55487],[-71.85894,-40.53893],[-71.85898,-40.53499],[-71.84277,-40.52533],[-71.84443,-40.52327],[-71.85521,-40.5088],[-71.84075,-40.48931],[-71.84075,-40.48906],[-71.84027,-40.48844],[-71.8414,-40.45802],[-71.84152,-40.45202],[-71.82073,-40.43533],[-71.82114,-40.43393],[-71.81989,-40.43283],[-71.82419,-40.42356],[-71.82471,-40.42178],[-71.79346,-40.40735],[-71.77324,-40.42276],[-71.77321,-40.42275],[-71.77289,-40.42299],[-71.75896,-40.41643],[-71.7586,-40.41682],[-71.74147,-40.43678],[-71.74086,-40.4364],[-71.73685,-40.44082],[-71.69393,-40.40669],[-71.69377,-40.40659],[-71.69377,-40.40656],[-71.69262,-40.40565],[-71.6931,-40.37373],[-71.68904,-40.37252],[-71.65709,-40.3644],[-71.6576,-40.36315],[-71.6566,-40.36285],[-71.65612,-40.34973],[-71.66416,-40.34695],[-71.67259,-40.32613],[-71.67165,-40.3111],[-71.68498,-40.29401],[-71.68575,-40.29364],[-71.68581,-40.29349],[-71.71678,-40.27876],[-71.74596,-40.30499],[-71.74867,-40.30461],[-71.76175,-40.27634],[-71.79394,-40.25853],[-71.80075,-40.2505],[-71.80673,-40.23331],[-71.81565,-40.23291],[-71.82574,-40.22102],[-71.82731,-40.21321],[-71.80565,-40.19225],[-71.79832,-40.18741],[-71.79989,-40.18668],[-71.79985,-40.18664],[-71.81713,-40.17864],[-71.82877,-40.17322],[-71.8087,-40.15124],[-71.8113,-40.14072],[-71.81018,-40.13867],[-71.80113,-40.13748],[-71.79843,-40.13748],[-71.8029,-40.11039],[-71.80352,-40.11033],[-71.80358,-40.10999],[-71.83028,-40.10466],[-71.82975,-40.10227],[-71.8174,-40.08504],[-71.8104,-40.08149],[-71.69795,-40.11745],[-71.67432,-40.10445],[-71.67422,-40.10407],[-71.67357,-40.10373],[-71.66627,-40.07339],[-71.68856,-40.03292],[-71.67605,-40.02644],[-71.67495,-40.02595],[-71.67491,-40.02585],[-71.67485,-40.02582],[-71.65108,-39.97204],[-71.62005,-39.97326],[-71.61408,-39.95666],[-71.61428,-39.95633],[-71.61424,-39.95622],[-71.62478,-39.93853],[-71.59813,-39.92969],[-71.59252,-39.91172],[-71.5927,-39.91139],[-71.59269,-39.91138],[-71.61267,-39.87437],[-71.63319,-39.88196],[-71.63333,-39.88156],[-71.636,-39.85862],[-71.6409,-39.85931],[-71.64291,-39.8534],[-71.67007,-39.86294],[-71.69129,-39.84167],[-71.69169,-39.83689],[-71.6921,-39.82455],[-71.66673,-39.80757],[-71.66727,-39.80742],[-71.66697,-39.80721],[-71.68362,-39.8019],[-71.68087,-39.76862],[-71.6823,-39.76661],[-71.68219,-39.76513],[-71.7044,-39.73566],[-71.71242,-39.72442],[-71.69372,-39.70725],[-71.70016,-39.70011],[-71.70389,-39.69576],[-71.68167,-39.69341],[-71.67164,-39.69247],[-71.67162,-39.69235],[-71.67122,-39.6923],[-71.66948,-39.68301],[-71.66992,-39.6827],[-71.66988,-39.68246],[-71.7172,-39.64927],[-71.71702,-39.64691],[-71.71543,-39.63415],[-71.69488,-39.62454],[-71.6949,-39.62432],[-71.69473,-39.62424],[-71.69832,-39.58701],[-71.67418,-39.56364],[-71.65606,-39.58748],[-71.65594,-39.5875],[-71.65588,-39.58757],[-71.65019,-39.58833],[-71.62395,-39.59216],[-71.61009,-39.6282],[-71.6098,-39.62827],[-71.60975,-39.62839],[-71.60607,-39.62917],[-71.57664,-39.63625],[-71.54103,-39.62434],[-71.50241,-39.6378],[-71.50192,-39.63715],[-71.50165,-39.63724],[-71.46121,-39.5832],[-71.46131,-39.58312],[-71.46112,-39.58286],[-71.46323,-39.5815],[-71.47415,-39.57228],[-71.47181,-39.55912],[-71.47031,-39.55236],[-71.50365,-39.55963],[-71.53368,-39.52933],[-71.52652,-39.51826],[-71.51687,-39.50404],[-71.48371,-39.49591],[-71.47324,-39.49369],[-71.47315,-39.49332],[-71.47294,-39.49327],[-71.47115,-39.48534],[-71.46434,-39.45805],[-71.45781,-39.45521],[-71.44709,-39.45062],[-71.45024,-39.42626],[-71.45026,-39.42625],[-71.45028,-39.42611],[-71.46389,-39.41931],[-71.445,-39.4082],[-71.44606,-39.40477],[-71.44448,-39.40347],[-71.45507,-39.3757],[-71.45665,-39.3706],[-71.43357,-39.37212],[-71.43334,-39.37196],[-71.43314,-39.37198],[-71.39967,-39.3503],[-71.38798,-39.32331],[-71.38564,-39.31815],[-71.39156,-39.2986],[-71.37545,-39.28407],[-71.37409,-39.28316],[-71.37421,-39.28295],[-71.37416,-39.28291],[-71.37448,-39.28248],[-71.38997,-39.25485],[-71.38229,-39.23791],[-71.38239,-39.23768],[-71.38236,-39.23765],[-71.39186,-39.21592],[-71.38104,-39.21224],[-71.38138,-39.21145],[-71.38107,-39.21133],[-71.40104,-39.16501],[-71.42119,-39.15107],[-71.40737,-39.09578],[-71.41773,-39.06966],[-71.39601,-39.04564],[-71.4214,-39.02524],[-71.41355,-39.00809],[-71.44151,-38.98103],[-71.43361,-38.92896],[-71.43047,-38.92777],[-71.37546,-38.90713],[-71.33583,-38.87619],[-71.29654,-38.87335],[-71.29607,-38.87303],[-71.29556,-38.87299],[-71.26788,-38.85344],[-71.26837,-38.83564],[-71.26855,-38.82829],[-71.23843,-38.80279],[-71.20713,-38.80991],[-71.1852,-38.81521],[-71.18234,-38.80759],[-71.17989,-38.80159],[-71.17531,-38.8001],[-71.11737,-38.78152],[-71.09439,-38.75552],[-71.06989,-38.76985],[-71.06221,-38.76436],[-71.05231,-38.75758],[-71.02536,-38.76414],[-71.00125,-38.77011],[-71.00112,-38.77004],[-71.00069,-38.77014],[-70.98062,-38.75995],[-70.92673,-38.7632],[-70.9265,-38.76287],[-70.92623,-38.76288],[-70.88527,-38.704],[-70.88374,-38.70181],[-70.88374,-38.7018],[-70.88363,-38.70164],[-70.90055,-38.68955],[-70.90451,-38.66686],[-70.90438,-38.66673],[-70.82702,-38.59595],[-70.82779,-38.59307],[-70.82649,-38.59182],[-70.83981,-38.54819],[-70.84248,-38.5382],[-70.84302,-38.53765],[-70.84306,-38.53752],[-70.86674,-38.51365],[-70.86687,-38.51362],[-70.86691,-38.51358],[-70.8709,-38.51272],[-70.91066,-38.5038],[-70.95177,-38.45023],[-70.95185,-38.45018],[-70.95209,-38.44986],[-70.98395,-38.43015],[-70.98242,-38.36438],[-70.99103,-38.35914],[-70.99762,-38.29199],[-70.99813,-38.29162],[-70.99806,-38.29117],[-71.0104,-38.28258],[-71.00902,-38.26217],[-71.00898,-38.26169],[-71.00924,-38.26155],[-71.03171,-38.24973],[-71.02809,-38.24683],[-71.01758,-38.23911],[-71.02032,-38.214],[-70.99677,-38.20312],[-70.99585,-38.17145],[-71.0216,-38.14501],[-71.04296,-38.12277],[-71.04078,-38.12209],[-70.98937,-38.1102],[-70.98933,-38.10591],[-70.98265,-38.10381],[-70.98916,-38.08888],[-70.98914,-38.0868],[-70.99044,-38.08595],[-70.99188,-38.08265],[-70.99636,-38.0821],[-71.05309,-38.04513],[-71.05487,-38.04363],[-71.05038,-38.02885],[-71.0626,-38.01642],[-71.0513,-37.9928],[-71.05118,-37.99255],[-71.05119,-37.99255],[-71.05118,-37.99255],[-71.06137,-37.99064],[-71.06765,-37.98946],[-71.0626,-37.97021],[-71.0626,-37.97021],[-71.0626,-37.97021],[-71.08044,-37.9639],[-71.11391,-37.95206],[-71.11046,-37.91699],[-71.09866,-37.90161],[-71.108,-37.89193],[-71.10792,-37.89105],[-71.13891,-37.85991],[-71.18146,-37.85848],[-71.18299,-37.85843],[-71.14434,-37.83266],[-71.12644,-37.82073],[-71.16728,-37.78746],[-71.16985,-37.78536],[-71.15623,-37.75719],[-71.15644,-37.75704],[-71.15637,-37.75689],[-71.18641,-37.72427],[-71.18882,-37.71252],[-71.20919,-37.69179],[-71.19973,-37.66386],[-71.20343,-37.65476],[-71.19912,-37.63924],[-71.18731,-37.62539],[-71.14862,-37.60908],[-71.14766,-37.60891],[-71.1473,-37.60852],[-71.14621,-37.60806],[-71.12799,-37.58756],[-71.13252,-37.55319],[-71.13254,-37.55306],[-71.14298,-37.54549],[-71.15153,-37.53929],[-71.13307,-37.52945],[-71.13307,-37.52945],[-71.13307,-37.52945],[-71.11733,-37.48971],[-71.11888,-37.4718],[-71.11818,-37.46895],[-71.11923,-37.4677],[-71.12006,-37.45808],[-71.1425,-37.44017],[-71.15357,-37.40067],[-71.19733,-37.38386],[-71.20167,-37.36513],[-71.19257,-37.35923],[-71.18568,-37.35477],[-71.20778,-37.3383],[-71.21208,-37.31783],[-71.22104,-37.27511],[-71.18799,-37.27591],[-71.1555,-37.23511],[-71.17042,-37.22539],[-71.11534,-37.20775],[-71.11534,-37.20775],[-71.11534,-37.20775],[-71.1353,-37.14775],[-71.09229,-37.11465],[-71.09229,-37.11465],[-71.09229,-37.11465],[-71.12282,-37.09163],[-71.12,-37.07414],[-71.12,-37.07414],[-71.12,-37.07414],[-71.14177,-37.06954],[-71.14273,-37.05094],[-71.14367,-37.03256],[-71.1673,-36.99699],[-71.22239,-36.97825],[-71.16057,-36.97434],[-71.14544,-36.9808],[-71.1176,-36.97163],[-71.10596,-36.97089],[-71.1039,-36.96711],[-71.10002,-36.96584],[-71.09559,-36.9519],[-71.08801,-36.93802],[-71.09008,-36.93457],[-71.08821,-36.92868],[-71.0936,-36.92871],[-71.09562,-36.92534],[-71.13939,-36.92896],[-71.14408,-36.92898],[-71.14917,-36.9019],[-71.14927,-36.90136],[-71.11912,-36.86918],[-71.11912,-36.86918],[-71.11912,-36.86918],[-71.13844,-36.85329],[-71.13915,-36.85352],[-71.13933,-36.85338],[-71.11794,-36.83606],[-71.10774,-36.76749],[-71.04273,-36.77147],[-70.95077,-36.86366]]]]}}]}