{"type":"FeatureCollection","name":"atlas-ciudades","crs":{"type":"name","properties":{"name":"urn:ogc:def:crs:OGC:1.3:CRS84"}},"features":[{"type":"Feature","properties":{"nam":"Neuquén","fna":"Neuquén","provincia":"Neuquén"},"geometry":{"type":"Point","coordinates":[-68.05918,-38.95183]}},{"type":"Feature","properties":{"nam":"San Martín de los Andes","fna":"San Martín de los Andes","provincia":"Neuquén"},"geometry":{"type":"Point","coordinates":[-71.35271,-40.15694]}},{"type":"Feature","properties":{"nam":"Villa La Angostura","fna":"Villa La Angostura","provincia":"Neuquén"},"geometry":{"type":"Point","coordinates":[-71.641,-40.763]}},{"type":"Feature","properties":{"nam":"Bariloche","fna":"San Carlos de Bariloche","provincia":"Río Negro"},"geometry":{"type":"Point","coordinates":[-71.31096,-41.1342]}},{"type":"Feature","properties":{"nam":"El Bolsón","fna":"El Bolsón","provincia":"Río Negro"},"geometry":{"type":"Point","coordinates":[-71.53436,-41.96502]}},{"type":"Feature","properties":{"nam":"Esquel","fna":"Esquel","provincia":"Chubut"},"geometry":{"type":"Point","coordinates":[-71.32157,-42.91732]}},{"type":"Feature","properties":{"nam":"El Chaltén","fna":"El Chaltén","provincia":"Santa Cruz"},"geometry":{"type":"Point","coordinates":[-72.88591,-49.33282]}},{"type":"Feature","properties":{"nam":"El Calafate","fna":"El Calafate","provincia":"Santa Cruz"},"geometry":{"type":"Point","coordinates":[-72.26067,-50.33803]}},{"type":"Feature","properties":{"nam":"Río Grande","fna":"Río Grande","provincia":"San Luis"},"geometry":{"type":"Point","coordinates":[-66.06895,-33.05481]}},{"type":"Feature","properties":{"nam":"Ushuaia","fna":"Ushuaia","provincia":"Tierra del Fuego"},"geometry":{"type":"Point","coordinates":[-68.30376,-54.8074]}}]}