{"type":"FeatureCollection","name":"atlas-ecoregion-bosques","crs":{"type":"name","properties":{"name":"urn:ogc:def:crs:OGC:1.3:CRS84"}},"features":[{"type":"Feature","properties":{"ecorregion":"Bosques Patagónicos","ecorregion_src":"Bosques Patagonicos"},"geometry":{"type":"MultiPolygon","coordinates":[[[[-66.54639,-55.06325],[-66.54889,-55.06259],[-66.54601,-55.06291],[-66.54639,-55.06325]]],[[[-66.30199,-55.01162],[-66.30455,-55.01662],[-66.30672,-55.01062],[-66.30199,-55.01162]]],[[[-67.00421,-54.95568],[-67.01045,-54.95629],[-67.00535,-54.95381],[-67.00421,-54.95568]]],[[[-65.57978,-54.94997],[-65.57311,-54.95065],[-65.57287,-54.9521],[-65.57978,-54.94997]]],[[[-65.59102,-54.94899],[-65.58837,-54.95039],[-65.59251,-54.94987],[-65.59102,-54.94899]]],[[[-67.0275,-54.9514],[-67.03487,-54.95082],[-67.03342,-54.94728],[-67.0275,-54.9514]]],[[[-64.60986,-54.91611],[-64.61276,-54.91596],[-64.60986,-54.91511],[-64.60986,-54.91611]]],[[[-64.60819,-54.91335],[-64.60662,-54.91444],[-64.60872,-54.91387],[-64.60819,-54.91335]]],[[[-67.40097,-54.90206],[-67.37469,-54.90361],[-67.37387,-54.90802],[-67.39174,-54.90776],[-67.40097,-54.90206]]],[[[-67.39577,-54.89394],[-67.40154,-54.89505],[-67.40114,-54.89393],[-67.39577,-54.89394]]],[[[-67.33582,-54.89663],[-67.34304,-54.89901],[-67.34917,-54.89279],[-67.33582,-54.89663]]],[[[-67.38255,-54.88865],[-67.3847,-54.89291],[-67.394,-54.89235],[-67.38255,-54.88865]]],[[[-64.66364,-54.88839],[-64.66624,-54.89091],[-64.67128,-54.89136],[-64.66364,-54.88839]]],[[[-67.42838,-54.88484],[-67.43108,-54.88881],[-67.43076,-54.88574],[-67.43504,-54.88565],[-67.42838,-54.88484]]],[[[-67.35476,-54.88387],[-67.35804,-54.88407],[-67.35869,-54.88355],[-67.35476,-54.88387]]],[[[-67.43734,-54.88143],[-67.42793,-54.88243],[-67.43929,-54.88213],[-67.43734,-54.88143]]],[[[-68.24237,-54.87757],[-68.24326,-54.87917],[-68.24645,-54.87847],[-68.24237,-54.87757]]],[[[-67.54033,-54.87979],[-67.47161,-54.8844],[-67.44712,-54.87906],[-67.4361,-54.89293],[-67.40792,-54.90004],[-67.42203,-54.89949],[-67.41428,-54.91225],[-67.46207,-54.9016],[-67.48765,-54.91797],[-67.53614,-54.90192],[-67.54033,-54.87979]]],[[[-64.48137,-54.87768],[-64.48527,-54.87711],[-64.48023,-54.87635],[-64.48137,-54.87768]]],[[[-68.23827,-54.87623],[-68.25304,-54.8749],[-68.23821,-54.87603],[-68.23827,-54.87623]]],[[[-64.17454,-54.8757],[-64.1661,-54.87683],[-64.17383,-54.88063],[-64.17454,-54.8757]]],[[[-68.25708,-54.87315],[-68.2613,-54.8737],[-68.2615,-54.87321],[-68.25708,-54.87315]]],[[[-68.08437,-54.87285],[-68.0862,-54.87243],[-68.08404,-54.87232],[-68.08437,-54.87285]]],[[[-68.19714,-54.87217],[-68.19859,-54.87309],[-68.20069,-54.87207],[-68.19714,-54.87217]]],[[[-68.20695,-54.87084],[-68.20536,-54.87214],[-68.20847,-54.87179],[-68.20695,-54.87084]]],[[[-68.1816,-54.87094],[-68.16969,-54.87141],[-68.16855,-54.87176],[-68.17807,-54.87314],[-68.1816,-54.87094]]],[[[-67.47877,-54.87308],[-67.45717,-54.87118],[-67.44608,-54.87585],[-67.46958,-54.8803],[-67.47877,-54.87308]]],[[[-68.26248,-54.86636],[-68.2654,-54.86798],[-68.26627,-54.86748],[-68.26248,-54.86636]]],[[[-68.25021,-54.86592],[-68.23288,-54.87037],[-68.26704,-54.86966],[-68.25021,-54.86592]]],[[[-68.45575,-54.86207],[-68.45456,-54.86537],[-68.46009,-54.86526],[-68.45575,-54.86207]]],[[[-68.25303,-54.86092],[-68.2452,-54.86204],[-68.25375,-54.86258],[-68.25303,-54.86092]]],[[[-68.4864,-54.86656],[-68.47971,-54.86084],[-68.47495,-54.86559],[-68.4864,-54.86656]]],[[[-68.23341,-54.86158],[-68.24251,-54.85826],[-68.2317,-54.85957],[-68.23341,-54.86158]]],[[[-68.16817,-54.85703],[-68.17303,-54.86081],[-68.17402,-54.85942],[-68.16817,-54.85703]]],[[[-68.18324,-54.85473],[-68.18616,-54.8545],[-68.18291,-54.85425],[-68.18324,-54.85473]]],[[[-68.25813,-54.84829],[-68.25029,-54.84684],[-68.24786,-54.84821],[-68.25813,-54.84829]]],[[[-64.39036,-54.84625],[-64.38507,-54.85315],[-64.39188,-54.85248],[-64.39036,-54.84625]]],[[[-64.15197,-54.84916],[-64.16304,-54.85582],[-64.15061,-54.84636],[-64.15197,-54.84916]]],[[[-64.3501,-54.84363],[-64.34986,-54.84444],[-64.35062,-54.84401],[-64.3501,-54.84363]]],[[[-64.35647,-54.8442],[-64.35343,-54.84296],[-64.35552,-54.84468],[-64.35647,-54.8442]]],[[[-64.33254,-54.84287],[-64.32678,-54.84249],[-64.33173,-54.84777],[-64.33254,-54.84287]]],[[[-68.25863,-54.83528],[-68.25439,-54.83552],[-68.25238,-54.8363],[-68.25863,-54.83528]]],[[[-64.36347,-54.83107],[-64.36099,-54.83149],[-64.36418,-54.8324],[-64.36347,-54.83107]]],[[[-64.57949,-54.81019],[-64.5831,-54.8101],[-64.57863,-54.80819],[-64.57949,-54.81019]]],[[[-64.10149,-54.74535],[-64.09507,-54.74648],[-64.10316,-54.74922],[-64.10149,-54.74535]]],[[[-64.09608,-54.74261],[-64.09453,-54.74357],[-64.09757,-54.74315],[-64.09608,-54.74261]]],[[[-64.09412,-54.74202],[-64.09263,-54.73982],[-64.09126,-54.74071],[-64.09412,-54.74202]]],[[[-64.34096,-54.72582],[-64.27866,-54.72896],[-64.24235,-54.74523],[-64.21632,-54.73386],[-64.13851,-54.77041],[-64.14541,-54.74509],[-64.16492,-54.74019],[-64.1495,-54.73034],[-64.10944,-54.73798],[-64.10611,-54.7497],[-64.12645,-54.75755],[-64.10843,-54.76433],[-64.08321,-54.75184],[-64.07292,-54.7284],[-64.04728,-54.73036],[-64.04984,-54.74208],[-64.03032,-54.75136],[-64.05097,-54.77409],[-64.04258,-54.77813],[-64.02426,-54.75249],[-63.98987,-54.73566],[-63.95805,-54.74125],[-63.93919,-54.72567],[-63.87631,-54.7168],[-63.8784,-54.73066],[-63.85484,-54.73173],[-63.88851,-54.7516],[-63.87875,-54.75523],[-63.82593,-54.72061],[-63.79589,-54.72715],[-63.81028,-54.73685],[-63.80148,-54.75101],[-63.82902,-54.76058],[-63.84568,-54.7892],[-63.88601,-54.79324],[-63.8828,-54.77968],[-63.95341,-54.81335],[-63.95674,-54.80056],[-63.94508,-54.79592],[-63.96751,-54.79366],[-63.9549,-54.76683],[-64.02295,-54.7911],[-64.03449,-54.80799],[-64.05364,-54.79955],[-64.0612,-54.77974],[-64.08458,-54.7908],[-64.07113,-54.79497],[-64.07524,-54.80805],[-64.10093,-54.8165],[-64.10986,-54.83328],[-64.12062,-54.81436],[-64.14817,-54.83006],[-64.17232,-54.82328],[-64.17964,-54.83893],[-64.20057,-54.8284],[-64.22076,-54.85768],[-64.22371,-54.84197],[-64.23913,-54.84036],[-64.22747,-54.8208],[-64.23468,-54.78196],[-64.26365,-54.80454],[-64.27016,-54.79057],[-64.30613,-54.7881],[-64.29909,-54.80644],[-64.33345,-54.83002],[-64.39442,-54.82733],[-64.41251,-54.85874],[-64.44967,-54.87569],[-64.44863,-54.86464],[-64.4846,-54.87464],[-64.48917,-54.86046],[-64.50131,-54.86231],[-64.47818,-54.85165],[-64.48594,-54.84766],[-64.44434,-54.83895],[-64.47147,-54.83519],[-64.4581,-54.82586],[-64.46614,-54.82343],[-64.51823,-54.85463],[-64.52667,-54.86783],[-64.51561,-54.87021],[-64.53905,-54.88842],[-64.56627,-54.88277],[-64.60615,-54.91085],[-64.62096,-54.90295],[-64.70424,-54.91546],[-64.64387,-54.88915],[-64.68366,-54.86108],[-64.66438,-54.85055],[-64.68633,-54.84276],[-64.73904,-54.85916],[-64.74863,-54.85648],[-64.73824,-54.84414],[-64.75657,-54.83649],[-64.72493,-54.81165],[-64.73784,-54.80451],[-64.70883,-54.78961],[-64.69735,-54.80605],[-64.67502,-54.8008],[-64.69615,-54.7843],[-64.68713,-54.78058],[-64.64789,-54.77681],[-64.63961,-54.79714],[-64.5865,-54.82081],[-64.55687,-54.79592],[-64.51142,-54.79806],[-64.52674,-54.7883],[-64.52146,-54.77312],[-64.5415,-54.76855],[-64.54464,-54.72525],[-64.48991,-54.76375],[-64.43223,-54.76103],[-64.41243,-54.78273],[-64.40315,-54.76441],[-64.42152,-54.75489],[-64.3914,-54.74914],[-64.3954,-54.7825],[-64.36661,-54.78483],[-64.36737,-54.81091],[-64.35761,-54.78511],[-64.37574,-54.75147],[-64.34943,-54.74062],[-64.33848,-54.70288],[-64.34096,-54.72582]]],[[[-64.24769,-54.69981],[-64.2367,-54.70505],[-64.24869,-54.70391],[-64.24769,-54.69981]]],[[[-64.25641,-54.6922],[-64.25156,-54.69458],[-64.25627,-54.69825],[-64.25641,-54.6922]]],[[[-64.27169,-54.67926],[-64.24747,-54.67607],[-64.25656,-54.68745],[-64.27169,-54.67926]]],[[[-64.16241,-54.65066],[-64.10911,-54.65119],[-64.13968,-54.6688],[-64.16241,-54.65066]]],[[[-67.50341,-53.94058],[-67.43683,-53.98436],[-67.33457,-54.01686],[-67.34504,-54.02457],[-67.32971,-54.04137],[-67.15882,-54.11161],[-67.16439,-54.1198],[-67.0813,-54.13198],[-66.95468,-54.18192],[-66.89996,-54.21751],[-66.73396,-54.26034],[-66.7421,-54.26596],[-66.73392,-54.27648],[-66.69094,-54.2829],[-66.7046,-54.2909],[-66.69247,-54.29894],[-66.70027,-54.30275],[-66.68433,-54.30608],[-66.66101,-54.34344],[-66.54413,-54.4024],[-66.55674,-54.40982],[-66.55222,-54.42053],[-66.465,-54.47873],[-66.38404,-54.48701],[-66.36441,-54.50105],[-65.9169,-54.61241],[-65.80278,-54.65191],[-65.68418,-54.66343],[-65.55117,-54.64734],[-65.52266,-54.66376],[-65.5199,-54.67756],[-65.51119,-54.65586],[-65.43081,-54.64215],[-65.44823,-54.65524],[-65.42853,-54.66319],[-65.42077,-54.64506],[-65.40188,-54.64035],[-65.23488,-54.61883],[-65.24544,-54.63053],[-65.23397,-54.63672],[-65.26148,-54.65295],[-65.25453,-54.66332],[-65.23902,-54.6589],[-65.23435,-54.64138],[-65.11676,-54.65823],[-65.19347,-54.69525],[-65.192,-54.72052],[-65.21827,-54.74565],[-65.19775,-54.76278],[-65.21293,-54.77411],[-65.20384,-54.78011],[-65.26387,-54.79591],[-65.22281,-54.81732],[-65.23229,-54.82926],[-65.31327,-54.87311],[-65.30898,-54.90298],[-65.32948,-54.92074],[-65.38214,-54.94107],[-65.4184,-54.93753],[-65.42862,-54.89356],[-65.46828,-54.88859],[-65.49941,-54.90177],[-65.49417,-54.92566],[-65.51102,-54.93494],[-65.55785,-54.9485],[-65.56456,-54.93642],[-65.60363,-54.94384],[-65.63684,-54.97002],[-65.71901,-54.97136],[-65.71182,-54.93429],[-65.73911,-54.90985],[-65.76607,-54.91305],[-65.77743,-54.90146],[-65.82455,-54.91556],[-65.84716,-54.90192],[-65.89182,-54.90037],[-65.91198,-54.91225],[-65.98239,-54.9026],[-65.99575,-54.91842],[-65.95813,-54.94101],[-65.97136,-54.96837],[-66.10766,-54.99493],[-66.33409,-54.9965],[-66.37082,-55.01073],[-66.35907,-55.02862],[-66.37216,-55.03957],[-66.45025,-55.05751],[-66.52159,-55.05675],[-66.64883,-55.02818],[-66.71867,-55.00534],[-66.76447,-54.96074],[-66.93402,-54.94178],[-67.15388,-54.89292],[-67.28219,-54.87936],[-67.276,-54.88775],[-67.28974,-54.87567],[-67.27202,-54.88013],[-67.27845,-54.86999],[-67.29518,-54.87205],[-67.28718,-54.87839],[-67.30266,-54.88735],[-67.35269,-54.86611],[-67.34224,-54.87496],[-67.36673,-54.87148],[-67.34144,-54.88273],[-67.35942,-54.87976],[-67.40951,-54.88941],[-67.41642,-54.88113],[-67.44086,-54.88119],[-67.45052,-54.86564],[-67.50631,-54.87463],[-67.49488,-54.86692],[-67.50576,-54.85349],[-67.60547,-54.88136],[-67.70346,-54.88603],[-67.82583,-54.85974],[-68.03331,-54.85021],[-68.10519,-54.82686],[-68.20128,-54.81651],[-68.24853,-54.79503],[-68.31521,-54.8108],[-68.29879,-54.8158],[-68.30464,-54.83208],[-68.26531,-54.83522],[-68.2606,-54.84071],[-68.31035,-54.84892],[-68.32477,-54.84136],[-68.31292,-54.83336],[-68.33027,-54.82979],[-68.42885,-54.85806],[-68.46213,-54.85954],[-68.48173,-54.84682],[-68.51109,-54.85905],[-68.57539,-54.85263],[-68.49993,-54.86711],[-68.55917,-54.89036],[-68.60942,-54.89396],[-68.59641,-54.87298],[-68.59513,-54.79962],[-68.60773,-54.55464],[-68.60762,-54.00271],[-68.48272,-54.0022],[-68.42168,-54.03085],[-68.14168,-54.05642],[-68.10653,-54.08207],[-68.04579,-54.08311],[-67.83434,-54.021],[-67.66938,-53.94358],[-67.50341,-53.94058]]],[[[-71.74688,-51.86192],[-71.62642,-51.93099],[-71.62483,-51.96447],[-71.65001,-51.9998],[-71.92254,-51.99994],[-71.96447,-51.97283],[-72.00427,-51.97951],[-72.03357,-51.96265],[-71.92884,-51.91455],[-71.94783,-51.87491],[-71.99713,-51.83436],[-71.8852,-51.81449],[-71.74688,-51.86192]]],[[[-72.15127,-51.23759],[-72.01456,-51.32586],[-72.01765,-51.47963],[-71.78271,-51.58574],[-71.27646,-51.74446],[-71.24358,-51.77575],[-71.25172,-51.82907],[-71.41341,-51.82887],[-71.54053,-51.78238],[-71.6379,-51.77654],[-72.153,-51.56207],[-72.20073,-51.63115],[-72.3038,-51.63225],[-72.31915,-51.62546],[-72.32702,-51.58734],[-72.37704,-51.58445],[-72.38871,-51.59507],[-72.44219,-51.58488],[-72.42631,-51.54686],[-72.39401,-51.52744],[-72.40518,-51.51339],[-72.34466,-51.52074],[-72.35091,-51.48454],[-72.32405,-51.47496],[-72.34087,-51.44959],[-72.33826,-51.42483],[-72.30994,-51.40315],[-72.30897,-51.36645],[-72.32608,-51.34568],[-72.369,-51.34212],[-72.36316,-51.32227],[-72.26918,-51.28325],[-72.25866,-51.24417],[-72.27433,-51.23486],[-72.15127,-51.23759]]],[[[-71.65884,-46.69377],[-71.72285,-46.76623],[-71.77818,-47.05456],[-71.83402,-47.08632],[-71.80564,-47.17844],[-72.19138,-47.82635],[-72.22192,-48.06572],[-72.19069,-48.10202],[-72.2092,-48.25494],[-72.17622,-48.29251],[-72.1761,-48.36531],[-72.05686,-48.47667],[-72.06367,-48.53358],[-72.18755,-48.53293],[-72.29883,-48.48869],[-72.32584,-48.53255],[-72.39145,-48.56829],[-72.44774,-48.8396],[-72.43783,-48.94516],[-72.62882,-49.23623],[-72.65572,-49.34089],[-72.76907,-49.44765],[-72.79906,-49.59745],[-72.86671,-49.68653],[-72.90974,-49.91074],[-72.87644,-50.00105],[-72.88975,-50.10649],[-72.85098,-50.13386],[-72.78708,-50.36321],[-72.54741,-50.62514],[-72.56136,-50.64653],[-72.57506,-50.64632],[-72.57461,-50.679],[-72.5947,-50.68166],[-72.62332,-50.65737],[-72.65578,-50.66396],[-72.68093,-50.64245],[-72.69842,-50.64552],[-72.73358,-50.61578],[-72.74003,-50.62677],[-72.77412,-50.62745],[-72.89144,-50.67018],[-72.90546,-50.69719],[-72.95202,-50.71838],[-72.94405,-50.72481],[-72.9547,-50.74096],[-73.00629,-50.76202],[-73.04199,-50.76129],[-73.0697,-50.78888],[-73.09692,-50.77338],[-73.20349,-50.82098],[-73.26752,-50.82397],[-73.28491,-50.7879],[-73.25598,-50.75012],[-73.28601,-50.7395],[-73.18591,-50.70038],[-73.17273,-50.6767],[-73.27081,-50.6488],[-73.2674,-50.62811],[-73.2887,-50.586],[-73.33191,-50.56842],[-73.38641,-50.51642],[-73.3656,-50.50751],[-73.3645,-50.48792],[-73.43262,-50.48309],[-73.4079,-50.46771],[-73.40369,-50.45081],[-73.42249,-50.44263],[-73.41931,-50.42963],[-73.43701,-50.42438],[-73.45538,-50.39258],[-73.48639,-50.38208],[-73.46991,-50.34448],[-73.48071,-50.32568],[-73.51678,-50.289],[-73.56543,-50.27069],[-73.54999,-50.22821],[-73.56,-50.21692],[-73.55518,-50.18439],[-73.52081,-50.15308],[-73.5415,-50.11902],[-73.4895,-50.0816],[-73.48291,-50.05408],[-73.53369,-50.0423],[-73.56659,-50.02039],[-73.50519,-49.96649],[-73.54388,-49.9494],[-73.55261,-49.92389],[-73.49048,-49.8526],[-73.49969,-49.81799],[-73.44531,-49.79388],[-73.46619,-49.77368],[-73.43878,-49.75781],[-73.47638,-49.7179],[-73.50909,-49.7052],[-73.4986,-49.69171],[-73.50458,-49.6629],[-73.46411,-49.6424],[-73.46368,-49.6189],[-73.49219,-49.57922],[-73.53601,-49.56403],[-73.54968,-49.53809],[-73.53961,-49.49823],[-73.48779,-49.50049],[-73.46381,-49.48248],[-73.47961,-49.4613],[-73.47388,-49.44128],[-73.49042,-49.42871],[-73.46002,-49.40021],[-73.42621,-49.39191],[-73.42908,-49.34399],[-73.41058,-49.3194],[-73.49371,-49.27271],[-73.495,-49.242],[-73.4707,-49.20111],[-73.14368,-49.271],[-73.04559,-49.27368],[-73.08937,-49.25306],[-73.10355,-49.26698],[-73.13319,-49.26718],[-73.14522,-49.24722],[-73.14543,-49.19015],[-73.11009,-49.15199],[-73.06215,-49.12752],[-73.04493,-49.08087],[-73.00491,-49.06345],[-73.01384,-49.03619],[-72.98137,-49.02916],[-72.99286,-48.99723],[-72.95879,-48.98004],[-72.94644,-48.9456],[-72.91971,-48.9357],[-72.86487,-48.94663],[-72.85062,-48.96609],[-72.79459,-48.96808],[-72.76632,-48.94573],[-72.74814,-48.91029],[-72.69435,-48.89539],[-72.69109,-48.86756],[-72.63694,-48.86725],[-72.53337,-48.7995],[-72.54263,-48.74039],[-72.53544,-48.66547],[-72.58575,-48.48732],[-72.53572,-48.48268],[-72.50242,-48.51855],[-72.44159,-48.51409],[-72.39358,-48.483],[-72.37351,-48.44982],[-72.40891,-48.43273],[-72.40641,-48.41608],[-72.34776,-48.3902],[-72.37697,-48.37154],[-72.38069,-48.35013],[-72.34355,-48.34533],[-72.27798,-48.36261],[-72.24107,-48.34832],[-72.22641,-48.32056],[-72.3167,-48.23401],[-72.32581,-48.21546],[-72.30711,-48.20121],[-72.29908,-48.15863],[-72.32716,-48.11602],[-72.35503,-48.10101],[-72.36031,-48.0736],[-72.41612,-48.07815],[-72.44379,-48.06435],[-72.41878,-48.00272],[-72.42597,-47.96699],[-72.49781,-47.96116],[-72.52742,-47.93778],[-72.49797,-47.87514],[-72.47688,-47.87093],[-72.46816,-47.81275],[-72.49593,-47.79711],[-72.52334,-47.74044],[-72.48442,-47.75908],[-72.47321,-47.75851],[-72.46606,-47.73789],[-72.44272,-47.7461],[-72.43553,-47.73351],[-72.45051,-47.70528],[-72.41743,-47.69432],[-72.4097,-47.67819],[-72.42081,-47.66163],[-72.39816,-47.65845],[-72.37966,-47.6358],[-72.35342,-47.63619],[-72.3091,-47.59084],[-72.32703,-47.57136],[-72.29114,-47.51189],[-72.3078,-47.48013],[-72.32675,-47.48196],[-72.34134,-47.45619],[-72.29343,-47.44624],[-72.24448,-47.40609],[-72.19735,-47.41704],[-72.16134,-47.39448],[-72.12808,-47.32812],[-72.04771,-47.34],[-72.03637,-47.31921],[-71.99645,-47.29495],[-72.01664,-47.24728],[-72.00091,-47.21757],[-72.01861,-47.19842],[-71.86475,-47.23057],[-71.8947,-47.21098],[-71.87995,-47.20547],[-71.88886,-47.17963],[-71.85048,-47.16419],[-71.85997,-47.13188],[-71.8803,-47.10749],[-71.94975,-47.08676],[-71.95405,-47.07606],[-71.90399,-47.05095],[-71.88004,-47.0101],[-71.89753,-46.99605],[-71.93257,-46.99438],[-71.91827,-46.98536],[-71.92986,-46.97774],[-71.958,-46.97424],[-71.95174,-46.95737],[-71.97105,-46.90523],[-71.93134,-46.86816],[-71.9325,-46.84025],[-71.95538,-46.81442],[-71.91409,-46.799],[-71.83289,-46.79776],[-71.77246,-46.76761],[-71.68578,-46.69733],[-71.65884,-46.69377]]],[[[-71.73515,-46.09756],[-71.75212,-46.23157],[-71.79302,-46.1909],[-71.82194,-46.20269],[-71.85937,-46.1947],[-71.8747,-46.16133],[-71.86507,-46.15685],[-71.89828,-46.16222],[-71.91465,-46.13992],[-71.82476,-46.11057],[-71.785,-46.12202],[-71.74738,-46.09199],[-71.73515,-46.09756]]],[[[-71.49725,-45.50333],[-71.55261,-45.79752],[-71.60083,-45.81902],[-71.64816,-45.90314],[-71.6904,-45.86529],[-71.7624,-45.85189],[-71.76644,-45.83626],[-71.74327,-45.80259],[-71.76126,-45.78784],[-71.75483,-45.77131],[-71.77122,-45.74374],[-71.80138,-45.71899],[-71.77501,-45.69425],[-71.77305,-45.68124],[-71.79566,-45.66613],[-71.77198,-45.64102],[-71.77956,-45.62182],[-71.74815,-45.61028],[-71.7266,-45.57746],[-71.76295,-45.57664],[-71.76353,-45.56031],[-71.74431,-45.54215],[-71.68259,-45.52777],[-71.68213,-45.51508],[-71.55956,-45.52358],[-71.49725,-45.50333]]],[[[-71.48404,-44.73724],[-71.43416,-44.75463],[-71.38771,-44.7921],[-71.50452,-45.08441],[-71.5108,-45.0957],[-71.52002,-45.1012],[-71.50658,-45.06797],[-71.55799,-45.03148],[-71.54095,-45.0002],[-71.55972,-44.97745],[-71.65729,-44.97559],[-71.71107,-44.95512],[-71.74211,-44.95835],[-71.75384,-44.92648],[-71.77815,-44.94026],[-71.81722,-44.91979],[-71.85444,-44.93231],[-71.87991,-44.95939],[-71.88353,-44.94597],[-71.92498,-44.94421],[-71.94789,-44.92058],[-71.97736,-44.91944],[-71.97925,-44.90356],[-72.03367,-44.90476],[-72.06582,-44.87672],[-72.03681,-44.8637],[-72.06536,-44.84828],[-72.02698,-44.80582],[-72.07392,-44.78107],[-72.06238,-44.75623],[-72.03242,-44.76545],[-72.01816,-44.75666],[-72.00549,-44.7843],[-71.95679,-44.78601],[-71.9275,-44.80404],[-71.91461,-44.77661],[-71.8598,-44.80048],[-71.81546,-44.79309],[-71.82458,-44.77494],[-71.78648,-44.75226],[-71.73593,-44.76879],[-71.68698,-44.76502],[-71.66634,-44.78721],[-71.59538,-44.77936],[-71.5816,-44.75226],[-71.56688,-44.75931],[-71.48404,-44.73724]]],[[[-71.04273,-36.77147],[-70.95077,-36.86366],[-70.99972,-36.90815],[-71.01378,-37.03168],[-71.05827,-37.07394],[-71.02847,-37.16353],[-70.9945,-37.19123],[-70.99114,-37.23076],[-70.9555,-37.25613],[-70.96223,-37.29046],[-71.00394,-37.2887],[-71.08605,-37.35441],[-71.02905,-37.5299],[-71.07294,-37.58053],[-71.00864,-37.71695],[-71.01376,-37.88143],[-70.98988,-37.92899],[-71.02086,-37.96347],[-70.96365,-38.03155],[-70.96045,-38.07346],[-70.92767,-38.10229],[-70.92152,-38.14551],[-70.88289,-38.17816],[-70.87965,-38.22007],[-70.7096,-38.39771],[-70.73886,-38.54333],[-70.68732,-38.59195],[-70.75577,-38.63812],[-70.67512,-38.70821],[-70.62246,-38.78909],[-70.70155,-38.9017],[-70.95738,-38.84694],[-71.01729,-38.8742],[-71.05508,-38.93343],[-71.08038,-39.09463],[-71.01081,-39.19312],[-71.02436,-39.42524],[-70.99641,-39.46464],[-70.99675,-39.53384],[-70.96815,-39.58638],[-70.96813,-39.65083],[-70.93571,-39.69398],[-71.02933,-39.81287],[-71.12023,-39.80769],[-71.16083,-39.77128],[-71.24641,-39.75788],[-71.29263,-39.77607],[-71.29565,-39.8153],[-71.22179,-39.8819],[-71.14823,-39.89236],[-71.13464,-39.93831],[-71.04424,-39.9948],[-71.05102,-40.04462],[-71.1116,-40.06582],[-71.06702,-40.09285],[-71.07318,-40.1964],[-71.12469,-40.21918],[-71.13985,-40.31636],[-71.17905,-40.33966],[-71.21065,-40.4862],[-71.29216,-40.52903],[-71.31301,-40.71302],[-71.36771,-40.82741],[-71.26763,-41.0504],[-71.27325,-41.12054],[-71.19834,-41.19078],[-71.06342,-41.4271],[-71.06387,-41.49391],[-71.02794,-41.52174],[-71.02278,-41.57805],[-71.07711,-41.66276],[-71.12695,-41.68918],[-71.18566,-41.78558],[-71.20676,-41.88843],[-71.29765,-42.00239],[-71.35907,-42.48276],[-71.26937,-42.43204],[-71.24313,-42.38791],[-71.19162,-42.38787],[-71.17473,-42.41728],[-71.19267,-42.55607],[-71.24258,-42.59316],[-71.28924,-42.59101],[-71.48357,-42.799],[-71.54289,-43.18868],[-71.35235,-43.26579],[-71.26952,-43.27084],[-71.20335,-43.31802],[-71.22163,-43.51167],[-71.27433,-43.5331],[-71.30606,-43.80009],[-71.35233,-43.83849],[-71.39339,-44.0191],[-71.42618,-44.05214],[-71.45348,-44.20475],[-71.50523,-44.22612],[-71.52076,-44.39657],[-71.55179,-44.40897],[-71.61724,-44.39849],[-71.66927,-44.40848],[-71.71169,-44.37922],[-71.73632,-44.39918],[-71.80299,-44.41965],[-71.81507,-44.41612],[-71.80433,-44.39914],[-71.82084,-44.39228],[-71.81751,-44.37748],[-71.83407,-44.36934],[-71.83902,-44.34998],[-71.78848,-44.33313],[-71.78874,-44.31816],[-71.80876,-44.28821],[-71.80312,-44.27169],[-71.82954,-44.26537],[-71.80636,-44.25811],[-71.80772,-44.22806],[-71.78002,-44.21719],[-71.80064,-44.21458],[-71.79988,-44.1917],[-71.84667,-44.15924],[-71.84866,-44.11353],[-71.78134,-44.11151],[-71.75943,-44.09961],[-71.67956,-43.97114],[-71.64878,-43.94593],[-71.66643,-43.90123],[-71.70738,-43.89449],[-71.70872,-43.85574],[-71.73196,-43.8597],[-71.76275,-43.84058],[-71.75342,-43.78818],[-71.69672,-43.72608],[-71.6611,-43.71922],[-71.66036,-43.70238],[-71.6319,-43.70809],[-71.63009,-43.69859],[-71.59978,-43.69697],[-71.612,-43.67604],[-71.58829,-43.67545],[-71.58146,-43.65168],[-71.62629,-43.62371],[-71.70346,-43.62525],[-71.70798,-43.5845],[-71.71821,-43.57635],[-71.75741,-43.58423],[-71.77652,-43.53869],[-71.87748,-43.55108],[-71.87849,-43.52753],[-71.84863,-43.48289],[-71.88138,-43.4513],[-71.92532,-43.45876],[-71.93423,-43.4491],[-71.91411,-43.41665],[-71.93321,-43.38656],[-71.89374,-43.38009],[-71.90439,-43.32189],[-71.8401,-43.33521],[-71.7864,-43.29697],[-71.75521,-43.31764],[-71.7346,-43.31433],[-71.7308,-43.28224],[-71.75725,-43.22827],[-71.7292,-43.20025],[-71.76053,-43.16462],[-71.78371,-43.16878],[-71.81508,-43.14568],[-71.85734,-43.14258],[-71.85299,-43.12711],[-71.88637,-43.12703],[-71.89268,-43.10702],[-71.9329,-43.10213],[-71.9433,-43.09242],[-71.93631,-43.05277],[-72.00262,-43.03741],[-72.03617,-43.01339],[-72.03815,-42.99256],[-72.05717,-42.98294],[-72.0732,-42.94961],[-72.11619,-42.93632],[-72.11413,-42.92261],[-72.14255,-42.89987],[-72.11829,-42.8817],[-72.13415,-42.85272],[-72.14788,-42.85002],[-72.16502,-42.79831],[-72.1427,-42.79528],[-72.13133,-42.77713],[-72.14716,-42.74156],[-72.12842,-42.73105],[-72.13821,-42.71116],[-72.17324,-42.70162],[-72.1787,-42.6892],[-72.17224,-42.67164],[-72.1359,-42.68014],[-72.09603,-42.64204],[-72.11761,-42.62921],[-72.11851,-42.60296],[-72.07517,-42.56632],[-72.05135,-42.56512],[-72.05374,-42.54547],[-72.0126,-42.49485],[-72.03415,-42.45659],[-72.04813,-42.45236],[-72.02849,-42.40752],[-72.07722,-42.38247],[-72.11272,-42.3983],[-72.13186,-42.38432],[-72.13834,-42.32703],[-72.12084,-42.32399],[-72.1681,-42.25987],[-72.1536,-42.24342],[-72.16632,-42.21383],[-72.15681,-42.19373],[-72.18414,-42.17737],[-72.18826,-42.16097],[-72.17153,-42.13936],[-72.1229,-42.15501],[-72.06651,-42.14674],[-72.07909,-42.12953],[-72.05201,-42.11392],[-72.00686,-42.14008],[-71.95755,-42.14125],[-71.95459,-42.16439],[-71.92375,-42.19041],[-71.89285,-42.18074],[-71.87446,-42.1547],[-71.83475,-42.16257],[-71.80346,-42.14557],[-71.78173,-42.14808],[-71.77725,-42.13023],[-71.74751,-42.13046],[-71.72612,-42.11024],[-71.74171,-42.08265],[-71.72765,-42.04664],[-71.75723,-42.03708],[-71.7547,-42.02372],[-71.79378,-41.96155],[-71.7934,-41.94403],[-71.77214,-41.93085],[-71.79748,-41.84263],[-71.79072,-41.83079],[-71.75137,-41.82493],[-71.77399,-41.79365],[-71.75393,-41.78745],[-71.77525,-41.76773],[-71.78418,-41.73495],[-71.81036,-41.72053],[-71.79438,-41.69474],[-71.81697,-41.6899],[-71.81779,-41.66993],[-71.8371,-41.66619],[-71.83656,-41.64564],[-71.857,-41.64527],[-71.88556,-41.60599],[-71.8468,-41.56529],[-71.81764,-41.57521],[-71.85207,-41.51485],[-71.82801,-41.48101],[-71.84336,-41.4517],[-71.82701,-41.4435],[-71.86321,-41.42201],[-71.86635,-41.3936],[-71.91124,-41.35674],[-71.91208,-41.34057],[-71.88165,-41.32414],[-71.87602,-41.30739],[-71.89654,-41.2789],[-71.88822,-41.2644],[-71.89701,-41.25514],[-71.85623,-41.25731],[-71.83444,-41.27203],[-71.85639,-41.24775],[-71.84702,-41.24284],[-71.85932,-41.23362],[-71.85403,-41.2146],[-71.87441,-41.20584],[-71.88751,-41.16813],[-71.83936,-41.1504],[-71.84959,-41.08315],[-71.81794,-41.06229],[-71.83936,-41.03584],[-71.86001,-41.03271],[-71.87551,-40.999],[-71.90634,-40.98611],[-71.90451,-40.96173],[-71.85644,-40.96002],[-71.86905,-40.89297],[-71.85818,-40.87948],[-71.87891,-40.88174],[-71.90828,-40.85804],[-71.93514,-40.82192],[-71.92136,-40.78576],[-71.96569,-40.74559],[-71.96278,-40.71986],[-71.86688,-40.66316],[-71.86808,-40.6489],[-71.84325,-40.62638],[-71.84064,-40.5979],[-71.82383,-40.57791],[-71.856,-40.59242],[-71.89042,-40.55605],[-71.8588,-40.55523],[-71.85898,-40.53499],[-71.84277,-40.52533],[-71.85565,-40.5094],[-71.84075,-40.48931],[-71.84153,-40.45192],[-71.81989,-40.43283],[-71.82496,-40.4219],[-71.79337,-40.40731],[-71.77289,-40.42299],[-71.75896,-40.41643],[-71.73685,-40.44082],[-71.69262,-40.40565],[-71.6931,-40.37373],[-71.6566,-40.36285],[-71.65612,-40.34973],[-71.67369,-40.34366],[-71.67165,-40.3111],[-71.68498,-40.29401],[-71.71676,-40.27898],[-71.73631,-40.30637],[-71.75436,-40.30379],[-71.76182,-40.27656],[-71.78757,-40.26604],[-71.83008,-40.2159],[-71.79985,-40.18664],[-71.8289,-40.1732],[-71.80953,-40.13747],[-71.79843,-40.13748],[-71.8029,-40.11039],[-71.83093,-40.10759],[-71.82703,-40.08992],[-71.80977,-40.08117],[-71.69832,-40.11682],[-71.67357,-40.10373],[-71.66627,-40.07339],[-71.68893,-40.03225],[-71.67495,-40.02595],[-71.65113,-39.97138],[-71.6199,-39.97249],[-71.61424,-39.95622],[-71.62518,-39.93787],[-71.59819,-39.92928],[-71.60276,-39.91668],[-71.59269,-39.91138],[-71.61267,-39.87437],[-71.63319,-39.88196],[-71.64291,-39.8534],[-71.67007,-39.86294],[-71.69154,-39.84142],[-71.6921,-39.82453],[-71.66697,-39.80721],[-71.68362,-39.8019],[-71.68087,-39.76862],[-71.71242,-39.72442],[-71.69372,-39.70725],[-71.70406,-39.69578],[-71.67122,-39.6923],[-71.66948,-39.68301],[-71.71723,-39.64953],[-71.71601,-39.63442],[-71.69488,-39.62454],[-71.69868,-39.58736],[-71.67418,-39.56364],[-71.65606,-39.58748],[-71.62395,-39.59216],[-71.61009,-39.6282],[-71.57664,-39.63625],[-71.54103,-39.62434],[-71.50241,-39.6378],[-71.46112,-39.58286],[-71.4745,-39.57421],[-71.47077,-39.55327],[-71.50399,-39.56038],[-71.53438,-39.53041],[-71.5174,-39.50417],[-71.47294,-39.49327],[-71.46505,-39.45832],[-71.44709,-39.45062],[-71.45024,-39.42626],[-71.46417,-39.41953],[-71.44448,-39.40347],[-71.45702,-39.37057],[-71.43357,-39.37212],[-71.40036,-39.3506],[-71.38564,-39.31815],[-71.39248,-39.29555],[-71.37409,-39.28316],[-71.39255,-39.25025],[-71.38236,-39.23765],[-71.39191,-39.2158],[-71.38107,-39.21133],[-71.40104,-39.16501],[-71.42119,-39.15107],[-71.40737,-39.09578],[-71.41773,-39.06966],[-71.39601,-39.04564],[-71.4214,-39.02524],[-71.41355,-39.00809],[-71.44151,-38.98103],[-71.4336,-38.92894],[-71.37546,-38.90713],[-71.33583,-38.87619],[-71.29654,-38.87335],[-71.26794,-38.85317],[-71.26855,-38.82817],[-71.23844,-38.80279],[-71.18532,-38.81487],[-71.17988,-38.80156],[-71.11737,-38.78152],[-71.09382,-38.75488],[-71.07005,-38.76972],[-71.05218,-38.75749],[-71.00125,-38.77011],[-70.98119,-38.75992],[-70.92673,-38.7632],[-70.88374,-38.70181],[-70.90052,-38.68967],[-70.90451,-38.66686],[-70.82649,-38.59182],[-70.84306,-38.53752],[-70.86674,-38.51365],[-70.91066,-38.5038],[-70.95177,-38.45023],[-70.98402,-38.43066],[-70.99762,-38.29199],[-71.01041,-38.28271],[-71.00899,-38.26169],[-71.03171,-38.24973],[-71.01789,-38.23869],[-71.02076,-38.21337],[-70.99712,-38.20266],[-70.99665,-38.17098],[-71.04296,-38.12277],[-70.98265,-38.10381],[-70.99188,-38.08265],[-71.01146,-38.08025],[-71.05487,-38.04363],[-71.05038,-38.02885],[-71.0626,-38.01642],[-71.05118,-37.99255],[-71.06765,-37.98946],[-71.0626,-37.97021],[-71.11391,-37.95206],[-71.10792,-37.89105],[-71.13891,-37.85991],[-71.18299,-37.85843],[-71.12644,-37.82073],[-71.16985,-37.78536],[-71.15623,-37.75719],[-71.18382,-37.73693],[-71.18882,-37.71252],[-71.21273,-37.68818],[-71.19632,-37.6292],[-71.14621,-37.60806],[-71.12799,-37.58756],[-71.13254,-37.55306],[-71.15153,-37.53929],[-71.13307,-37.52945],[-71.11733,-37.48971],[-71.12006,-37.45808],[-71.1425,-37.44017],[-71.15357,-37.40067],[-71.19733,-37.38386],[-71.20167,-37.36513],[-71.18568,-37.35477],[-71.20778,-37.3383],[-71.22104,-37.27511],[-71.18799,-37.27591],[-71.1555,-37.23511],[-71.17042,-37.22539],[-71.11534,-37.20775],[-71.1353,-37.14775],[-71.09229,-37.11465],[-71.12282,-37.09163],[-71.12,-37.07414],[-71.14177,-37.06954],[-71.14367,-37.03256],[-71.1673,-36.99699],[-71.2224,-36.97825],[-71.17459,-36.96837],[-71.14544,-36.9808],[-71.10002,-36.96584],[-71.08821,-36.92868],[-71.14429,-36.92898],[-71.14927,-36.90136],[-71.11912,-36.86918],[-71.13933,-36.85338],[-71.11794,-36.83606],[-71.10774,-36.76749],[-71.04273,-36.77147]]]]}}]}