{"type":"FeatureCollection","features":[{"type":"Feature","id":"smn_estaciones_meteorologicas.1","geometry":{"type":"Point","coordinates":[-34.63333333,-77.86666667]},"geometry_name":"geom","properties":{"gid":1,"nombre":"Base Belgrano II","latitud":-77.866666670000001,"longitud":-34.633333329999999,"altura":256,"nro":89034,"nro_oaci":"SAYB","fuente":"SMN"},"bbox":[-34.63333333,-77.86666667,-34.63333333,-77.86666667]},{"type":"Feature","id":"smn_estaciones_meteorologicas.2","geometry":{"type":"Point","coordinates":[-58.66666667,-62.23333333]},"geometry_name":"geom","properties":{"gid":2,"nombre":"Base Carlini (Ex Jubany)","latitud":-62.233333330000001,"longitud":-58.666666669999998,"altura":11,"nro":89053,"nro_oaci":"SAYJ","fuente":"SMN"},"bbox":[-58.66666667,-62.23333333,-58.66666667,-62.23333333]},{"type":"Feature","id":"smn_estaciones_meteorologicas.3","geometry":{"type":"Point","coordinates":[-57,-63.4]},"geometry_name":"geom","properties":{"gid":3,"nombre":"Base Esperanza","latitud":-63.399999999999999,"longitud":-57,"altura":24,"nro":88963,"nro_oaci":"SAYE","fuente":"SMN"},"bbox":[-57,-63.4,-57,-63.4]},{"type":"Feature","id":"smn_estaciones_meteorologicas.4","geometry":{"type":"Point","coordinates":[-56.63333333,-64.23333333]},"geometry_name":"geom","properties":{"gid":4,"nombre":"Base Marambio","latitud":-64.233333329999994,"longitud":-56.633333329999999,"altura":198,"nro":89055,"nro_oaci":"SAWB","fuente":"SMN"},"bbox":[-56.63333333,-64.23333333,-56.63333333,-64.23333333]},{"type":"Feature","id":"smn_estaciones_meteorologicas.5","geometry":{"type":"Point","coordinates":[-44.73333333,-60.73333333]},"geometry_name":"geom","properties":{"gid":5,"nombre":"Base Orcadas","latitud":-60.733333330000001,"longitud":-44.733333330000001,"altura":12,"nro":88968,"nro_oaci":"SAYO","fuente":"SMN"},"bbox":[-44.73333333,-60.73333333,-44.73333333,-60.73333333]},{"type":"Feature","id":"smn_estaciones_meteorologicas.6","geometry":{"type":"Point","coordinates":[-67.1,-68.13333333]},"geometry_name":"geom","properties":{"gid":6,"nombre":"Base San Martín","latitud":-68.133333329999999,"longitud":-67.099999999999994,"altura":7,"nro":89066,"nro_oaci":"SAYS","fuente":"SMN"},"bbox":[-67.1,-68.13333333,-67.1,-68.13333333]},{"type":"Feature","id":"smn_estaciones_meteorologicas.7","geometry":{"type":"Point","coordinates":[-59.88333333,-36.83333333]},"geometry_name":"geom","properties":{"gid":7,"nombre":"Azul Aéro","latitud":-36.833333330000002,"longitud":-59.883333329999999,"altura":147,"nro":87641,"nro_oaci":"SAZA","fuente":"SMN"},"bbox":[-59.88333333,-36.83333333,-59.88333333,-36.83333333]},{"type":"Feature","id":"smn_estaciones_meteorologicas.8","geometry":{"type":"Point","coordinates":[-62.16666667,-38.71666667]},"geometry_name":"geom","properties":{"gid":8,"nombre":"Bahía Blanca Aéro","latitud":-38.716666670000002,"longitud":-62.166666669999998,"altura":83,"nro":87750,"nro_oaci":"SAZB","fuente":"SMN"},"bbox":[-62.16666667,-38.71666667,-62.16666667,-38.71666667]},{"type":"Feature","id":"smn_estaciones_meteorologicas.9","geometry":{"type":"Point","coordinates":[-59.78333333,-37.7]},"geometry_name":"geom","properties":{"gid":9,"nombre":"Benito Juarez Aéro","latitud":-37.700000000000003,"longitud":-59.783333329999998,"altura":207,"nro":87649,"nro_oaci":"SAZJ","fuente":"SMN"},"bbox":[-59.78333333,-37.7,-59.78333333,-37.7]},{"type":"Feature","id":"smn_estaciones_meteorologicas.10","geometry":{"type":"Point","coordinates":[-61.06666667,-36.18333333]},"geometry_name":"geom","properties":{"gid":10,"nombre":"Bolivar Aéro","latitud":-36.183333330000004,"longitud":-61.066666669999996,"altura":94,"nro":87640,"nro_oaci":"SAZI","fuente":"SMN"},"bbox":[-61.06666667,-36.18333333,-61.06666667,-36.18333333]},{"type":"Feature","id":"smn_estaciones_meteorologicas.11","geometry":{"type":"Point","coordinates":[-58.68333333,-34.53333333]},"geometry_name":"geom","properties":{"gid":11,"nombre":"Campo de Mayo Aéro","latitud":-34.533333329999998,"longitud":-58.683333330000004,"altura":26,"nro":87570,"nro_oaci":"SADO","fuente":"SMN"},"bbox":[-58.68333333,-34.53333333,-58.68333333,-34.53333333]},{"type":"Feature","id":"smn_estaciones_meteorologicas.12","geometry":{"type":"Point","coordinates":[-61.33333333,-38]},"geometry_name":"geom","properties":{"gid":12,"nombre":"Coronel Pringles Aéro","latitud":-38,"longitud":-61.333333330000002,"altura":247,"nro":87683,"nro_oaci":"SABP","fuente":"SMN"},"bbox":[-61.33333333,-38,-61.33333333,-38]},{"type":"Feature","id":"smn_estaciones_meteorologicas.13","geometry":{"type":"Point","coordinates":[-61.88333333,-37.45]},"geometry_name":"geom","properties":{"gid":13,"nombre":"Coronel Suarez Aéro","latitud":-37.450000000000003,"longitud":-61.883333329999999,"altura":233,"nro":87637,"nro_oaci":"SAZC","fuente":"SMN"},"bbox":[-61.88333333,-37.45,-61.88333333,-37.45]},{"type":"Feature","id":"smn_estaciones_meteorologicas.14","geometry":{"type":"Point","coordinates":[-57.71666667,-36.31666667]},"geometry_name":"geom","properties":{"gid":14,"nombre":"Dolores Aéro","latitud":-36.316666669999996,"longitud":-57.716666670000002,"altura":9,"nro":87648,"nro_oaci":"SAZD","fuente":"SMN"},"bbox":[-57.71666667,-36.31666667,-57.71666667,-36.31666667]},{"type":"Feature","id":"smn_estaciones_meteorologicas.15","geometry":{"type":"Point","coordinates":[-58.61666667,-34.6]},"geometry_name":"geom","properties":{"gid":15,"nombre":"El Palomar Aéro","latitud":-34.600000000000001,"longitud":-58.616666670000001,"altura":12,"nro":87571,"nro_oaci":"SADP","fuente":"SMN"},"bbox":[-58.61666667,-34.6,-58.61666667,-34.6]},{"type":"Feature","id":"smn_estaciones_meteorologicas.16","geometry":{"type":"Point","coordinates":[-58.55,-34.81666667]},"geometry_name":"geom","properties":{"gid":16,"nombre":"Ezeiza Aéro","latitud":-34.816666669999996,"longitud":-58.549999999999997,"altura":20,"nro":87576,"nro_oaci":"SAEZ","fuente":"SMN"},"bbox":[-58.55,-34.81666667,-58.55,-34.81666667]},{"type":"Feature","id":"smn_estaciones_meteorologicas.17","geometry":{"type":"Point","coordinates":[-60.93333333,-34.55]},"geometry_name":"geom","properties":{"gid":17,"nombre":"Junin Aéro","latitud":-34.549999999999997,"longitud":-60.933333330000004,"altura":81,"nro":87548,"nro_oaci":"SAAJ","fuente":"SMN"},"bbox":[-60.93333333,-34.55,-60.93333333,-34.55]},{"type":"Feature","id":"smn_estaciones_meteorologicas.18","geometry":{"type":"Point","coordinates":[-57.9,-34.96666667]},"geometry_name":"geom","properties":{"gid":18,"nombre":"La Plata Aéro","latitud":-34.966666670000002,"longitud":-57.899999999999999,"altura":23,"nro":87593,"nro_oaci":"SADL","fuente":"SMN"},"bbox":[-57.9,-34.96666667,-57.9,-34.96666667]},{"type":"Feature","id":"smn_estaciones_meteorologicas.19","geometry":{"type":"Point","coordinates":[-59.13333333,-36.03333333]},"geometry_name":"geom","properties":{"gid":19,"nombre":"Las Flores","latitud":-36.033333329999998,"longitud":-59.133333329999999,"altura":36,"nro":87563,"nro_oaci":"SAEL","fuente":"SMN"},"bbox":[-59.13333333,-36.03333333,-59.13333333,-36.03333333]},{"type":"Feature","id":"smn_estaciones_meteorologicas.20","geometry":{"type":"Point","coordinates":[-57.58333333,-37.93333333]},"geometry_name":"geom","properties":{"gid":20,"nombre":"Mar del Plata Aéro","latitud":-37.933333330000004,"longitud":-57.583333330000002,"altura":21,"nro":87692,"nro_oaci":"SAZM","fuente":"SMN"},"bbox":[-57.58333333,-37.93333333,-57.58333333,-37.93333333]},{"type":"Feature","id":"smn_estaciones_meteorologicas.21","geometry":{"type":"Point","coordinates":[-58.78333333,-34.55]},"geometry_name":"geom","properties":{"gid":21,"nombre":"Mariano Moreno Aéro","latitud":-34.549999999999997,"longitud":-58.783333329999998,"altura":32,"nro":87572,"nro_oaci":"SADJ","fuente":"SMN"},"bbox":[-58.78333333,-34.55,-58.78333333,-34.55]},{"type":"Feature","id":"smn_estaciones_meteorologicas.22","geometry":{"type":"Point","coordinates":[-58.75,-34.68333333]},"geometry_name":"geom","properties":{"gid":22,"nombre":"Merlo Aéro","latitud":-34.683333330000004,"longitud":-58.75,"altura":36,"nro":87573,"nro_oaci":"SADR","fuente":"SMN"},"bbox":[-58.75,-34.68333333,-58.75,-34.68333333]},{"type":"Feature","id":"smn_estaciones_meteorologicas.23","geometry":{"type":"Point","coordinates":[-58.63333333,-34.66666667]},"geometry_name":"geom","properties":{"gid":23,"nombre":"Moron Aéro","latitud":-34.666666669999998,"longitud":-58.633333329999999,"altura":24,"nro":87574,"nro_oaci":"SADM","fuente":"SMN"},"bbox":[-58.63333333,-34.66666667,-58.63333333,-34.66666667]},{"type":"Feature","id":"smn_estaciones_meteorologicas.24","geometry":{"type":"Point","coordinates":[-60.88333333,-35.43333333]},"geometry_name":"geom","properties":{"gid":24,"nombre":"Nueve de Julio","latitud":-35.433333330000004,"longitud":-60.883333329999999,"altura":76,"nro":87550,"nro_oaci":"SAZX","fuente":"SMN"},"bbox":[-60.88333333,-35.43333333,-60.88333333,-35.43333333]},{"type":"Feature","id":"smn_estaciones_meteorologicas.25","geometry":{"type":"Point","coordinates":[-60.21666667,-36.88333333]},"geometry_name":"geom","properties":{"gid":25,"nombre":"Olavarría Aéro","latitud":-36.883333329999999,"longitud":-60.216666670000002,"altura":166,"nro":87643,"nro_oaci":"SAZF","fuente":"SMN"},"bbox":[-60.21666667,-36.88333333,-60.21666667,-36.88333333]},{"type":"Feature","id":"smn_estaciones_meteorologicas.26","geometry":{"type":"Point","coordinates":[-61.86666667,-35.83333333]},"geometry_name":"geom","properties":{"gid":26,"nombre":"Pehuajó Aéro","latitud":-35.833333330000002,"longitud":-61.866666670000001,"altura":87,"nro":87544,"nro_oaci":"SAZP","fuente":"SMN"},"bbox":[-61.86666667,-35.83333333,-61.86666667,-35.83333333]},{"type":"Feature","id":"smn_estaciones_meteorologicas.27","geometry":{"type":"Point","coordinates":[-62.38333333,-37.6]},"geometry_name":"geom","properties":{"gid":27,"nombre":"Pigué Aéro","latitud":-37.600000000000001,"longitud":-62.383333329999999,"altura":304,"nro":87679,"nro_oaci":"SAZE","fuente":"SMN"},"bbox":[-62.38333333,-37.6,-62.38333333,-37.6]},{"type":"Feature","id":"smn_estaciones_meteorologicas.28","geometry":{"type":"Point","coordinates":[-57.3,-35.35]},"geometry_name":"geom","properties":{"gid":28,"nombre":"Punta Indio B.A.","latitud":-35.350000000000001,"longitud":-57.299999999999997,"altura":22,"nro":87596,"nro_oaci":"SAAI","fuente":"SMN"},"bbox":[-57.3,-35.35,-57.3,-35.35]},{"type":"Feature","id":"smn_estaciones_meteorologicas.29","geometry":{"type":"Point","coordinates":[-58.58333333,-34.45]},"geometry_name":"geom","properties":{"gid":29,"nombre":"San Fernando Aéro","latitud":-34.450000000000003,"longitud":-58.583333330000002,"altura":3,"nro":87553,"nro_oaci":"SADF","fuente":"SMN"},"bbox":[-58.58333333,-34.45,-58.58333333,-34.45]},{"type":"Feature","id":"smn_estaciones_meteorologicas.30","geometry":{"type":"Point","coordinates":[-59.23333333,-37.23333333]},"geometry_name":"geom","properties":{"gid":30,"nombre":"Tandil Aéro","latitud":-37.233333330000001,"longitud":-59.233333330000001,"altura":175,"nro":87645,"nro_oaci":"SAZT","fuente":"SMN"},"bbox":[-59.23333333,-37.23333333,-59.23333333,-37.23333333]},{"type":"Feature","id":"smn_estaciones_meteorologicas.31","geometry":{"type":"Point","coordinates":[-62.73333333,-35.96666667]},"geometry_name":"geom","properties":{"gid":31,"nombre":"Trenque Lauquen","latitud":-35.966666670000002,"longitud":-62.733333330000001,"altura":95,"nro":87540,"nro_oaci":"SAET","fuente":"SMN"},"bbox":[-62.73333333,-35.96666667,-62.73333333,-35.96666667]},{"type":"Feature","id":"smn_estaciones_meteorologicas.32","geometry":{"type":"Point","coordinates":[-60.28333333,-38.36666667]},"geometry_name":"geom","properties":{"gid":32,"nombre":"Tres Arroyos","latitud":-38.366666670000001,"longitud":-60.283333329999998,"altura":115,"nro":87688,"nro_oaci":"SAZH","fuente":"SMN"},"bbox":[-60.28333333,-38.36666667,-60.28333333,-38.36666667]},{"type":"Feature","id":"smn_estaciones_meteorologicas.33","geometry":{"type":"Point","coordinates":[-57.01666667,-37.23333333]},"geometry_name":"geom","properties":{"gid":33,"nombre":"Villa Gesell Aéro","latitud":-37.233333330000001,"longitud":-57.016666669999999,"altura":9,"nro":87663,"nro_oaci":"SAZV","fuente":"SMN"},"bbox":[-57.01666667,-37.23333333,-57.01666667,-37.23333333]},{"type":"Feature","id":"smn_estaciones_meteorologicas.34","geometry":{"type":"Point","coordinates":[-58.41666667,-34.56666667]},"geometry_name":"geom","properties":{"gid":34,"nombre":"Aeroparque Aéro","latitud":-34.566666669999996,"longitud":-58.416666669999998,"altura":6,"nro":87582,"nro_oaci":"SABE","fuente":"SMN"},"bbox":[-58.41666667,-34.56666667,-58.41666667,-34.56666667]},{"type":"Feature","id":"smn_estaciones_meteorologicas.35","geometry":{"type":"Point","coordinates":[-58.48333333,-34.58333333]},"geometry_name":"geom","properties":{"gid":35,"nombre":"Buenos Aires Observatorio","latitud":-34.583333330000002,"longitud":-58.483333330000001,"altura":25,"nro":87585,"nro_oaci":"SABA","fuente":"SMN"},"bbox":[-58.48333333,-34.58333333,-58.48333333,-34.58333333]},{"type":"Feature","id":"smn_estaciones_meteorologicas.36","geometry":{"type":"Point","coordinates":[-65.75,-28.6]},"geometry_name":"geom","properties":{"gid":36,"nombre":"Catamarca Aéro","latitud":-28.600000000000001,"longitud":-65.75,"altura":464,"nro":87222,"nro_oaci":"SANC","fuente":"SMN"},"bbox":[-65.75,-28.6,-65.75,-28.6]},{"type":"Feature","id":"smn_estaciones_meteorologicas.37","geometry":{"type":"Point","coordinates":[-67.56666667,-28.06666667]},"geometry_name":"geom","properties":{"gid":37,"nombre":"Tinogasta","latitud":-28.06666667,"longitud":-67.566666670000004,"altura":1201,"nro":87211,"nro_oaci":"SANI","fuente":"SMN"},"bbox":[-67.56666667,-28.06666667,-67.56666667,-28.06666667]},{"type":"Feature","id":"smn_estaciones_meteorologicas.38","geometry":{"type":"Point","coordinates":[-60.48333333,-26.75]},"geometry_name":"geom","properties":{"gid":38,"nombre":"Presidencia Roque Saenz Peña","latitud":-26.75,"longitud":-60.483333330000001,"altura":93,"nro":87148,"nro_oaci":"SARS","fuente":"SMN"},"bbox":[-60.48333333,-26.75,-60.48333333,-26.75]},{"type":"Feature","id":"smn_estaciones_meteorologicas.39","geometry":{"type":"Point","coordinates":[-59.05,-27.43333333]},"geometry_name":"geom","properties":{"gid":39,"nombre":"Resistencia Aéro","latitud":-27.43333333,"longitud":-59.049999999999997,"altura":52,"nro":87155,"nro_oaci":"SARE","fuente":"SMN"},"bbox":[-59.05,-27.43333333,-59.05,-27.43333333]},{"type":"Feature","id":"smn_estaciones_meteorologicas.40","geometry":{"type":"Point","coordinates":[-67.46666667,-45.8]},"geometry_name":"geom","properties":{"gid":40,"nombre":"Comodoro Rivadavia Aéro","latitud":-45.799999999999997,"longitud":-67.466666669999995,"altura":46,"nro":87860,"nro_oaci":"SAVC","fuente":"SMN"},"bbox":[-67.46666667,-45.8,-67.46666667,-45.8]},{"type":"Feature","id":"smn_estaciones_meteorologicas.41","geometry":{"type":"Point","coordinates":[-71.15,-42.9]},"geometry_name":"geom","properties":{"gid":41,"nombre":"Esquel Aéro","latitud":-42.899999999999999,"longitud":-71.150000000000006,"altura":797,"nro":87803,"nro_oaci":"SAVE","fuente":"SMN"},"bbox":[-71.15,-42.9,-71.15,-42.9]},{"type":"Feature","id":"smn_estaciones_meteorologicas.42","geometry":{"type":"Point","coordinates":[-69.05,-43.7]},"geometry_name":"geom","properties":{"gid":42,"nombre":"Paso de Indios","latitud":-43.700000000000003,"longitud":-69.049999999999997,"altura":460,"nro":87814,"nro_oaci":"SAVP","fuente":"SMN"},"bbox":[-69.05,-43.7,-69.05,-43.7]},{"type":"Feature","id":"smn_estaciones_meteorologicas.43","geometry":{"type":"Point","coordinates":[-65.1,-42.75]},"geometry_name":"geom","properties":{"gid":43,"nombre":"Puerto Madryn Aéro","latitud":-42.75,"longitud":-65.099999999999994,"altura":136,"nro":87823,"nro_oaci":"SAVY","fuente":"SMN"},"bbox":[-65.1,-42.75,-65.1,-42.75]},{"type":"Feature","id":"smn_estaciones_meteorologicas.44","geometry":{"type":"Point","coordinates":[-65.28333333,-43.21666667]},"geometry_name":"geom","properties":{"gid":44,"nombre":"Trelew Aéro","latitud":-43.216666670000002,"longitud":-65.283333330000005,"altura":43,"nro":87828,"nro_oaci":"SAVT","fuente":"SMN"},"bbox":[-65.28333333,-43.21666667,-65.28333333,-43.21666667]},{"type":"Feature","id":"smn_estaciones_meteorologicas.45","geometry":{"type":"Point","coordinates":[-64.21666667,-31.3]},"geometry_name":"geom","properties":{"gid":45,"nombre":"Cordoba Aéro","latitud":-31.300000000000001,"longitud":-64.216666669999995,"altura":495,"nro":87344,"nro_oaci":"SACO","fuente":"SMN"},"bbox":[-64.21666667,-31.3,-64.21666667,-31.3]},{"type":"Feature","id":"smn_estaciones_meteorologicas.46","geometry":{"type":"Point","coordinates":[-64.2,-31.41666667]},"geometry_name":"geom","properties":{"gid":46,"nombre":"Cordoba Observatorio","latitud":-31.416666670000001,"longitud":-64.200000000000003,"altura":425,"nro":87345,"nro_oaci":"SACK","fuente":"SMN"},"bbox":[-64.2,-31.41666667,-64.2,-31.41666667]},{"type":"Feature","id":"smn_estaciones_meteorologicas.47","geometry":{"type":"Point","coordinates":[-64.28333333,-31.45]},"geometry_name":"geom","properties":{"gid":47,"nombre":"Escuela de Aviacion Milita","latitud":-31.449999999999999,"longitud":-64.283333330000005,"altura":502,"nro":87347,"nro_oaci":"SACE","fuente":"SMN"},"bbox":[-64.28333333,-31.45,-64.28333333,-31.45]},{"type":"Feature","id":"smn_estaciones_meteorologicas.48","geometry":{"type":"Point","coordinates":[-63.36666667,-34.13333333]},"geometry_name":"geom","properties":{"gid":48,"nombre":"Laboulaye Aéro","latitud":-34.133333329999999,"longitud":-63.366666670000001,"altura":137,"nro":87534,"nro_oaci":"SAOL","fuente":"SMN"},"bbox":[-63.36666667,-34.13333333,-63.36666667,-34.13333333]},{"type":"Feature","id":"smn_estaciones_meteorologicas.49","geometry":{"type":"Point","coordinates":[-62.15,-32.68333333]},"geometry_name":"geom","properties":{"gid":49,"nombre":"Marcos Juarez Aéro","latitud":-32.683333330000004,"longitud":-62.149999999999999,"altura":114,"nro":87467,"nro_oaci":"SAOM","fuente":"SMN"},"bbox":[-62.15,-32.68333333,-62.15,-32.68333333]},{"type":"Feature","id":"smn_estaciones_meteorologicas.50","geometry":{"type":"Point","coordinates":[-63.88333333,-31.66666667]},"geometry_name":"geom","properties":{"gid":50,"nombre":"Pilar Observatorio","latitud":-31.666666670000001,"longitud":-63.883333329999999,"altura":338,"nro":87349,"nro_oaci":"SACI","fuente":"SMN"},"bbox":[-63.88333333,-31.66666667,-63.88333333,-31.66666667]},{"type":"Feature","id":"smn_estaciones_meteorologicas.51","geometry":{"type":"Point","coordinates":[-64.28333333,-33.1]},"geometry_name":"geom","properties":{"gid":51,"nombre":"Rio Cuarto Aéro","latitud":-33.100000000000001,"longitud":-64.283333330000005,"altura":421,"nro":87453,"nro_oaci":"SAOC","fuente":"SMN"},"bbox":[-64.28333333,-33.1,-64.28333333,-33.1]},{"type":"Feature","id":"smn_estaciones_meteorologicas.52","geometry":{"type":"Point","coordinates":[-63.73333333,-29.9]},"geometry_name":"geom","properties":{"gid":52,"nombre":"Villa De Maria Del Rio Seco","latitud":-29.899999999999999,"longitud":-63.733333330000001,"altura":341,"nro":87244,"nro_oaci":"SACV","fuente":"SMN"},"bbox":[-63.73333333,-29.9,-63.73333333,-29.9]},{"type":"Feature","id":"smn_estaciones_meteorologicas.53","geometry":{"type":"Point","coordinates":[-65.15,-31.95]},"geometry_name":"geom","properties":{"gid":53,"nombre":"Villa Dolores Aéro","latitud":-31.949999999999999,"longitud":-65.150000000000006,"altura":566,"nro":87328,"nro_oaci":"SAOD","fuente":"SMN"},"bbox":[-65.15,-31.95,-65.15,-31.95]},{"type":"Feature","id":"smn_estaciones_meteorologicas.54","geometry":{"type":"Point","coordinates":[-58.76666667,-27.45]},"geometry_name":"geom","properties":{"gid":54,"nombre":"Corrientes Aéro","latitud":-27.449999999999999,"longitud":-58.766666669999999,"altura":62,"nro":87166,"nro_oaci":"SARC","fuente":"SMN"},"bbox":[-58.76666667,-27.45,-58.76666667,-27.45]},{"type":"Feature","id":"smn_estaciones_meteorologicas.55","geometry":{"type":"Point","coordinates":[-56.68333333,-27.58333333]},"geometry_name":"geom","properties":{"gid":55,"nombre":"Ituzaingó","latitud":-27.583333329999999,"longitud":-56.683333330000004,"altura":72,"nro":87173,"nro_oaci":"SARO","fuente":"SMN"},"bbox":[-56.68333333,-27.58333333,-56.68333333,-27.58333333]},{"type":"Feature","id":"smn_estaciones_meteorologicas.56","geometry":{"type":"Point","coordinates":[-58.08333333,-29.23333333]},"geometry_name":"geom","properties":{"gid":56,"nombre":"Mercedes Aéro (Ctes)","latitud":-29.233333330000001,"longitud":-58.083333330000002,"altura":107,"nro":87281,"nro_oaci":"SATM","fuente":"SMN"},"bbox":[-58.08333333,-29.23333333,-58.08333333,-29.23333333]},{"type":"Feature","id":"smn_estaciones_meteorologicas.57","geometry":{"type":"Point","coordinates":[-57.63333333,-30.26666667]},"geometry_name":"geom","properties":{"gid":57,"nombre":"Monte Caseros Aéro","latitud":-30.266666669999999,"longitud":-57.633333329999999,"altura":54,"nro":87393,"nro_oaci":"SARM","fuente":"SMN"},"bbox":[-57.63333333,-30.26666667,-57.63333333,-30.26666667]},{"type":"Feature","id":"smn_estaciones_meteorologicas.58","geometry":{"type":"Point","coordinates":[-57.15,-29.68333333]},"geometry_name":"geom","properties":{"gid":58,"nombre":"Paso de Los Libres Aéro","latitud":-29.68333333,"longitud":-57.149999999999999,"altura":70,"nro":87289,"nro_oaci":"SARL","fuente":"SMN"},"bbox":[-57.15,-29.68333333,-57.15,-29.68333333]},{"type":"Feature","id":"smn_estaciones_meteorologicas.59","geometry":{"type":"Point","coordinates":[-58,-31.3]},"geometry_name":"geom","properties":{"gid":59,"nombre":"Concordia Aéro","latitud":-31.300000000000001,"longitud":-58,"altura":38,"nro":87395,"nro_oaci":"SAAC","fuente":"SMN"},"bbox":[-58,-31.3,-58,-31.3]},{"type":"Feature","id":"smn_estaciones_meteorologicas.60","geometry":{"type":"Point","coordinates":[-58.61666667,-33.01666667]},"geometry_name":"geom","properties":{"gid":60,"nombre":"Gualeguaychú Aéro","latitud":-33.016666669999999,"longitud":-58.616666670000001,"altura":23,"nro":87497,"nro_oaci":"SAAG","fuente":"SMN"},"bbox":[-58.61666667,-33.01666667,-58.61666667,-33.01666667]},{"type":"Feature","id":"smn_estaciones_meteorologicas.61","geometry":{"type":"Point","coordinates":[-60.48333333,-31.78333333]},"geometry_name":"geom","properties":{"gid":61,"nombre":"Paraná Aéro","latitud":-31.783333330000001,"longitud":-60.483333330000001,"altura":78,"nro":87374,"nro_oaci":"SAAP","fuente":"SMN"},"bbox":[-60.48333333,-31.78333333,-60.48333333,-31.78333333]},{"type":"Feature","id":"smn_estaciones_meteorologicas.62","geometry":{"type":"Point","coordinates":[-58.23333333,-26.21666667]},"geometry_name":"geom","properties":{"gid":62,"nombre":"Formosa Aéro","latitud":-26.216666669999999,"longitud":-58.233333330000001,"altura":60,"nro":87162,"nro_oaci":"SARF","fuente":"SMN"},"bbox":[-58.23333333,-26.21666667,-58.23333333,-26.21666667]},{"type":"Feature","id":"smn_estaciones_meteorologicas.63","geometry":{"type":"Point","coordinates":[-60.6,-24.7]},"geometry_name":"geom","properties":{"gid":63,"nombre":"Las Lomitas","latitud":-24.699999999999999,"longitud":-60.600000000000001,"altura":130,"nro":87078,"nro_oaci":"SATK","fuente":"SMN"},"bbox":[-60.6,-24.7,-60.6,-24.7]},{"type":"Feature","id":"smn_estaciones_meteorologicas.64","geometry":{"type":"Point","coordinates":[-65.1,-24.38333333]},"geometry_name":"geom","properties":{"gid":64,"nombre":"Jujuy Aéro","latitud":-24.383333329999999,"longitud":-65.099999999999994,"altura":907,"nro":87046,"nro_oaci":"SASJ","fuente":"SMN"},"bbox":[-65.1,-24.38333333,-65.1,-24.38333333]},{"type":"Feature","id":"smn_estaciones_meteorologicas.65","geometry":{"type":"Point","coordinates":[-65.33333333,-24.18333333]},"geometry_name":"geom","properties":{"gid":65,"nombre":"Jujuy U N","latitud":-24.18333333,"longitud":-65.333333330000002,"altura":1302,"nro":87043,"nro_oaci":null,"fuente":"SMN"},"bbox":[-65.33333333,-24.18333333,-65.33333333,-24.18333333]},{"type":"Feature","id":"smn_estaciones_meteorologicas.66","geometry":{"type":"Point","coordinates":[-65.6,-22.1]},"geometry_name":"geom","properties":{"gid":66,"nombre":"La Quiaca Observatorio","latitud":-22.100000000000001,"longitud":-65.599999999999994,"altura":3459,"nro":87007,"nro_oaci":"SASQ","fuente":"SMN"},"bbox":[-65.6,-22.1,-65.6,-22.1]},{"type":"Feature","id":"smn_estaciones_meteorologicas.67","geometry":{"type":"Point","coordinates":[-63.76666667,-35.68333333]},"geometry_name":"geom","properties":{"gid":67,"nombre":"General Pico Aéro","latitud":-35.683333330000004,"longitud":-63.766666669999999,"altura":145,"nro":87532,"nro_oaci":"SAZG","fuente":"SMN"},"bbox":[-63.76666667,-35.68333333,-63.76666667,-35.68333333]},{"type":"Feature","id":"smn_estaciones_meteorologicas.68","geometry":{"type":"Point","coordinates":[-64.28333333,-36.6]},"geometry_name":"geom","properties":{"gid":68,"nombre":"Santa Rosa Aéro","latitud":-36.600000000000001,"longitud":-64.283333330000005,"altura":191,"nro":87623,"nro_oaci":"SAZR","fuente":"SMN"},"bbox":[-64.28333333,-36.6,-64.28333333,-36.6]},{"type":"Feature","id":"smn_estaciones_meteorologicas.69","geometry":{"type":"Point","coordinates":[-65.43333333,-36.21666667]},"geometry_name":"geom","properties":{"gid":69,"nombre":"Victorica","latitud":-36.216666670000002,"longitud":-65.433333329999996,"altura":312,"nro":87616,"nro_oaci":"SAHV","fuente":"SMN"},"bbox":[-65.43333333,-36.21666667,-65.43333333,-36.21666667]},{"type":"Feature","id":"smn_estaciones_meteorologicas.70","geometry":{"type":"Point","coordinates":[-66.3,-30.35]},"geometry_name":"geom","properties":{"gid":70,"nombre":"Chamical Aéro","latitud":-30.350000000000001,"longitud":-66.299999999999997,"altura":461,"nro":87320,"nro_oaci":"SACT","fuente":"SMN"},"bbox":[-66.3,-30.35,-66.3,-30.35]},{"type":"Feature","id":"smn_estaciones_meteorologicas.71","geometry":{"type":"Point","coordinates":[-66.58333333,-31.33333333]},"geometry_name":"geom","properties":{"gid":71,"nombre":"Chepes","latitud":-31.333333329999999,"longitud":-66.583333330000002,"altura":658,"nro":87322,"nro_oaci":"SACP","fuente":"SMN"},"bbox":[-66.58333333,-31.33333333,-66.58333333,-31.33333333]},{"type":"Feature","id":"smn_estaciones_meteorologicas.72","geometry":{"type":"Point","coordinates":[-67.45,-29.21666667]},"geometry_name":"geom","properties":{"gid":72,"nombre":"Chilecito Aéro","latitud":-29.216666669999999,"longitud":-67.450000000000003,"altura":947,"nro":87213,"nro_oaci":"SANO","fuente":"SMN"},"bbox":[-67.45,-29.21666667,-67.45,-29.21666667]},{"type":"Feature","id":"smn_estaciones_meteorologicas.73","geometry":{"type":"Point","coordinates":[-66.8,-29.38333333]},"geometry_name":"geom","properties":{"gid":73,"nombre":"La Rioja Aéro","latitud":-29.383333329999999,"longitud":-66.799999999999997,"altura":429,"nro":87217,"nro_oaci":"SANL","fuente":"SMN"},"bbox":[-66.8,-29.38333333,-66.8,-29.38333333]},{"type":"Feature","id":"smn_estaciones_meteorologicas.74","geometry":{"type":"Point","coordinates":[-69.58333333,-35.48333333]},"geometry_name":"geom","properties":{"gid":74,"nombre":"Malargue Aéro","latitud":-35.483333330000001,"longitud":-69.583333330000002,"altura":1425,"nro":87506,"nro_oaci":"SAMM","fuente":"SMN"},"bbox":[-69.58333333,-35.48333333,-69.58333333,-35.48333333]},{"type":"Feature","id":"smn_estaciones_meteorologicas.75","geometry":{"type":"Point","coordinates":[-68.8,-32.85]},"geometry_name":"geom","properties":{"gid":75,"nombre":"Mendoza Aéro","latitud":-32.850000000000001,"longitud":-68.799999999999997,"altura":704,"nro":87418,"nro_oaci":"SAME","fuente":"SMN"},"bbox":[-68.8,-32.85,-68.8,-32.85]},{"type":"Feature","id":"smn_estaciones_meteorologicas.76","geometry":{"type":"Point","coordinates":[-68.86666667,-32.9]},"geometry_name":"geom","properties":{"gid":76,"nombre":"Mendoza Observatorio","latitud":-32.899999999999999,"longitud":-68.866666670000001,"altura":827,"nro":87420,"nro_oaci":"SAMK","fuente":"SMN"},"bbox":[-68.86666667,-32.9,-68.86666667,-32.9]},{"type":"Feature","id":"smn_estaciones_meteorologicas.77","geometry":{"type":"Point","coordinates":[-69.05,-33.76666667]},"geometry_name":"geom","properties":{"gid":77,"nombre":"San Carlos (Mza)","latitud":-33.766666669999999,"longitud":-69.049999999999997,"altura":940,"nro":87412,"nro_oaci":"SAMS","fuente":"SMN"},"bbox":[-69.05,-33.76666667,-69.05,-33.76666667]},{"type":"Feature","id":"smn_estaciones_meteorologicas.78","geometry":{"type":"Point","coordinates":[-68.46666667,-33.06666667]},"geometry_name":"geom","properties":{"gid":78,"nombre":"San Martin (Mza)","latitud":-33.066666669999996,"longitud":-68.466666669999995,"altura":653,"nro":87416,"nro_oaci":"SAMI","fuente":"SMN"},"bbox":[-68.46666667,-33.06666667,-68.46666667,-33.06666667]},{"type":"Feature","id":"smn_estaciones_meteorologicas.79","geometry":{"type":"Point","coordinates":[-68.4,-34.58333333]},"geometry_name":"geom","properties":{"gid":79,"nombre":"San Rafael Aéro","latitud":-34.583333330000002,"longitud":-68.400000000000006,"altura":748,"nro":87509,"nro_oaci":"SAMR","fuente":"SMN"},"bbox":[-68.4,-34.58333333,-68.4,-34.58333333]},{"type":"Feature","id":"smn_estaciones_meteorologicas.80","geometry":{"type":"Point","coordinates":[-69.33333333,-32.6]},"geometry_name":"geom","properties":{"gid":80,"nombre":"Uspallata","latitud":-32.600000000000001,"longitud":-69.333333330000002,"altura":1891,"nro":87405,"nro_oaci":"SAMU","fuente":"SMN"},"bbox":[-69.33333333,-32.6,-69.33333333,-32.6]},{"type":"Feature","id":"smn_estaciones_meteorologicas.81","geometry":{"type":"Point","coordinates":[-53.66666667,-26.28333333]},"geometry_name":"geom","properties":{"gid":81,"nombre":"Bernardo De Irigoyen Aéro","latitud":-26.283333330000001,"longitud":-53.666666669999998,"altura":815,"nro":87163,"nro_oaci":"SATI","fuente":"SMN"},"bbox":[-53.66666667,-26.28333333,-53.66666667,-26.28333333]},{"type":"Feature","id":"smn_estaciones_meteorologicas.82","geometry":{"type":"Point","coordinates":[-54.48333333,-25.73333333]},"geometry_name":"geom","properties":{"gid":82,"nombre":"Iguazú Aéro","latitud":-25.733333330000001,"longitud":-54.483333330000001,"altura":270,"nro":87097,"nro_oaci":"SARI","fuente":"SMN"},"bbox":[-54.48333333,-25.73333333,-54.48333333,-25.73333333]},{"type":"Feature","id":"smn_estaciones_meteorologicas.83","geometry":{"type":"Point","coordinates":[-55.13333333,-27.48333333]},"geometry_name":"geom","properties":{"gid":83,"nombre":"Oberá","latitud":-27.483333330000001,"longitud":-55.133333329999999,"altura":303,"nro":87187,"nro_oaci":"SATO","fuente":"SMN"},"bbox":[-55.13333333,-27.48333333,-55.13333333,-27.48333333]},{"type":"Feature","id":"smn_estaciones_meteorologicas.84","geometry":{"type":"Point","coordinates":[-55.96666667,-27.38333333]},"geometry_name":"geom","properties":{"gid":84,"nombre":"Posadas Aéro","latitud":-27.383333329999999,"longitud":-55.966666670000002,"altura":125,"nro":87178,"nro_oaci":"SARP","fuente":"SMN"},"bbox":[-55.96666667,-27.38333333,-55.96666667,-27.38333333]},{"type":"Feature","id":"smn_estaciones_meteorologicas.85","geometry":{"type":"Point","coordinates":[-71.15,-40.08333333]},"geometry_name":"geom","properties":{"gid":85,"nombre":"Chapelco Aéro","latitud":-40.083333330000002,"longitud":-71.150000000000006,"altura":779,"nro":87761,"nro_oaci":"SAZY","fuente":"SMN"},"bbox":[-71.15,-40.08333333,-71.15,-40.08333333]},{"type":"Feature","id":"smn_estaciones_meteorologicas.86","geometry":{"type":"Point","coordinates":[-68.13333333,-38.95]},"geometry_name":"geom","properties":{"gid":86,"nombre":"Neuquén Aéro","latitud":-38.950000000000003,"longitud":-68.133333329999999,"altura":271,"nro":87715,"nro_oaci":"SAZN","fuente":"SMN"},"bbox":[-68.13333333,-38.95,-68.13333333,-38.95]},{"type":"Feature","id":"smn_estaciones_meteorologicas.87","geometry":{"type":"Point","coordinates":[-71.16666667,-41.15]},"geometry_name":"geom","properties":{"gid":87,"nombre":"Bariloche Aéro","latitud":-41.149999999999999,"longitud":-71.166666669999998,"altura":835,"nro":87765,"nro_oaci":"SAZS","fuente":"SMN"},"bbox":[-71.16666667,-41.15,-71.16666667,-41.15]},{"type":"Feature","id":"smn_estaciones_meteorologicas.88","geometry":{"type":"Point","coordinates":[-67.98333333,-38.93333333]},"geometry_name":"geom","properties":{"gid":88,"nombre":"Cipolletti","latitud":-38.933333330000004,"longitud":-67.983333329999994,"altura":265,"nro":87719,"nro_oaci":"SAHI","fuente":"SMN"},"bbox":[-67.98333333,-38.93333333,-67.98333333,-38.93333333]},{"type":"Feature","id":"smn_estaciones_meteorologicas.89","geometry":{"type":"Point","coordinates":[-71.53333333,-41.95]},"geometry_name":"geom","properties":{"gid":89,"nombre":"El Bolson Aéro","latitud":-41.950000000000003,"longitud":-71.533333330000005,"altura":337,"nro":87800,"nro_oaci":"SAVB","fuente":"SMN"},"bbox":[-71.53333333,-41.95,-71.53333333,-41.95]},{"type":"Feature","id":"smn_estaciones_meteorologicas.90","geometry":{"type":"Point","coordinates":[-68.7,-41.25]},"geometry_name":"geom","properties":{"gid":90,"nombre":"Maquinchao","latitud":-41.25,"longitud":-68.700000000000003,"altura":888,"nro":87774,"nro_oaci":"SAVQ","fuente":"SMN"},"bbox":[-68.7,-41.25,-68.7,-41.25]},{"type":"Feature","id":"smn_estaciones_meteorologicas.91","geometry":{"type":"Point","coordinates":[-64.08333333,-38.98333333]},"geometry_name":"geom","properties":{"gid":91,"nombre":"Rio Colorado","latitud":-38.983333330000001,"longitud":-64.083333330000002,"altura":79,"nro":87736,"nro_oaci":"SAZQ","fuente":"SMN"},"bbox":[-64.08333333,-38.98333333,-64.08333333,-38.98333333]},{"type":"Feature","id":"smn_estaciones_meteorologicas.92","geometry":{"type":"Point","coordinates":[-65.03333333,-40.75]},"geometry_name":"geom","properties":{"gid":92,"nombre":"San Antonio Oeste Aéro","latitud":-40.75,"longitud":-65.033333330000005,"altura":20,"nro":87784,"nro_oaci":"SAVN","fuente":"SMN"},"bbox":[-65.03333333,-40.75,-65.03333333,-40.75]},{"type":"Feature","id":"smn_estaciones_meteorologicas.93","geometry":{"type":"Point","coordinates":[-63,-40.86666667]},"geometry_name":"geom","properties":{"gid":93,"nombre":"Viedma Aéro","latitud":-40.866666670000001,"longitud":-63,"altura":7,"nro":87791,"nro_oaci":"SAVV","fuente":"SMN"},"bbox":[-63,-40.86666667,-63,-40.86666667]},{"type":"Feature","id":"smn_estaciones_meteorologicas.94","geometry":{"type":"Point","coordinates":[-64.96666667,-25.51666667]},"geometry_name":"geom","properties":{"gid":94,"nombre":"Metán","latitud":-25.516666669999999,"longitud":-64.966666669999995,"altura":855,"nro":87050,"nro_oaci":"SASM","fuente":"SMN"},"bbox":[-64.96666667,-25.51666667,-64.96666667,-25.51666667]},{"type":"Feature","id":"smn_estaciones_meteorologicas.95","geometry":{"type":"Point","coordinates":[-64.33333333,-23.15]},"geometry_name":"geom","properties":{"gid":95,"nombre":"Orán Aéro","latitud":-23.149999999999999,"longitud":-64.333333330000002,"altura":357,"nro":87016,"nro_oaci":"SASO","fuente":"SMN"},"bbox":[-64.33333333,-23.15,-64.33333333,-23.15]},{"type":"Feature","id":"smn_estaciones_meteorologicas.96","geometry":{"type":"Point","coordinates":[-62.88333333,-24.18333333]},"geometry_name":"geom","properties":{"gid":96,"nombre":"Rivadavia","latitud":-24.18333333,"longitud":-62.883333329999999,"altura":205,"nro":87065,"nro_oaci":"SASR","fuente":"SMN"},"bbox":[-62.88333333,-24.18333333,-62.88333333,-24.18333333]},{"type":"Feature","id":"smn_estaciones_meteorologicas.97","geometry":{"type":"Point","coordinates":[-65.48333333,-24.85]},"geometry_name":"geom","properties":{"gid":97,"nombre":"Salta Aéro","latitud":-24.850000000000001,"longitud":-65.483333329999994,"altura":1221,"nro":87047,"nro_oaci":"SASA","fuente":"SMN"},"bbox":[-65.48333333,-24.85,-65.48333333,-24.85]},{"type":"Feature","id":"smn_estaciones_meteorologicas.98","geometry":{"type":"Point","coordinates":[-63.8,-22.61666667]},"geometry_name":"geom","properties":{"gid":98,"nombre":"Tartagal Aéro","latitud":-22.616666670000001,"longitud":-63.799999999999997,"altura":450,"nro":87022,"nro_oaci":"SAST","fuente":"SMN"},"bbox":[-63.8,-22.61666667,-63.8,-22.61666667]},{"type":"Feature","id":"smn_estaciones_meteorologicas.99","geometry":{"type":"Point","coordinates":[-68.73333333,-30.23333333]},"geometry_name":"geom","properties":{"gid":99,"nombre":"Jachal","latitud":-30.233333330000001,"longitud":-68.733333329999994,"altura":1175,"nro":87305,"nro_oaci":"SAMJ","fuente":"SMN"},"bbox":[-68.73333333,-30.23333333,-68.73333333,-30.23333333]},{"type":"Feature","id":"smn_estaciones_meteorologicas.100","geometry":{"type":"Point","coordinates":[-68.41666667,-31.56666667]},"geometry_name":"geom","properties":{"gid":100,"nombre":"San Juan Aéro","latitud":-31.56666667,"longitud":-68.416666669999998,"altura":598,"nro":87311,"nro_oaci":"SANU","fuente":"SMN"},"bbox":[-68.41666667,-31.56666667,-68.41666667,-31.56666667]},{"type":"Feature","id":"smn_estaciones_meteorologicas.101","geometry":{"type":"Point","coordinates":[-66.35,-33.26666667]},"geometry_name":"geom","properties":{"gid":101,"nombre":"San Luis Aéro","latitud":-33.266666669999999,"longitud":-66.349999999999994,"altura":713,"nro":87436,"nro_oaci":"SAOU","fuente":"SMN"},"bbox":[-66.35,-33.26666667,-66.35,-33.26666667]},{"type":"Feature","id":"smn_estaciones_meteorologicas.102","geometry":{"type":"Point","coordinates":[-65.18333333,-32.38333333]},"geometry_name":"geom","properties":{"gid":102,"nombre":"Santa Rosa De Conlara Aéro","latitud":-32.383333329999999,"longitud":-65.183333329999996,"altura":620,"nro":87444,"nro_oaci":"SAOS","fuente":"SMN"},"bbox":[-65.18333333,-32.38333333,-65.18333333,-32.38333333]},{"type":"Feature","id":"smn_estaciones_meteorologicas.103","geometry":{"type":"Point","coordinates":[-65.36666667,-33.71666667]},"geometry_name":"geom","properties":{"gid":103,"nombre":"Villa Reynolds Aéro","latitud":-33.716666670000002,"longitud":-65.366666670000001,"altura":486,"nro":87448,"nro_oaci":"SAOR","fuente":"SMN"},"bbox":[-65.36666667,-33.71666667,-65.36666667,-33.71666667]},{"type":"Feature","id":"smn_estaciones_meteorologicas.104","geometry":{"type":"Point","coordinates":[-72.05,-50.28333333]},"geometry_name":"geom","properties":{"gid":104,"nombre":"El Calafate Aéro","latitud":-50.283333329999998,"longitud":-72.049999999999997,"altura":204,"nro":87904,"nro_oaci":"SAWC","fuente":"SMN"},"bbox":[-72.05,-50.28333333,-72.05,-50.28333333]},{"type":"Feature","id":"smn_estaciones_meteorologicas.105","geometry":{"type":"Point","coordinates":[-70.16666667,-48.78333333]},"geometry_name":"geom","properties":{"gid":105,"nombre":"Gobernador Gregores Aéro","latitud":-48.783333329999998,"longitud":-70.166666669999998,"altura":358,"nro":87880,"nro_oaci":"SAWR","fuente":"SMN"},"bbox":[-70.16666667,-48.78333333,-70.16666667,-48.78333333]},{"type":"Feature","id":"smn_estaciones_meteorologicas.106","geometry":{"type":"Point","coordinates":[-70.98333333,-46.53333333]},"geometry_name":"geom","properties":{"gid":106,"nombre":"Perito Moreno Aéro","latitud":-46.533333329999998,"longitud":-70.983333329999994,"altura":429,"nro":87852,"nro_oaci":"SAWP","fuente":"SMN"},"bbox":[-70.98333333,-46.53333333,-70.98333333,-46.53333333]},{"type":"Feature","id":"smn_estaciones_meteorologicas.107","geometry":{"type":"Point","coordinates":[-65.9,-47.73333333]},"geometry_name":"geom","properties":{"gid":107,"nombre":"Puerto Deseado Aéro","latitud":-47.733333330000001,"longitud":-65.900000000000006,"altura":80,"nro":87896,"nro_oaci":"SAWD","fuente":"SMN"},"bbox":[-65.9,-47.73333333,-65.9,-47.73333333]},{"type":"Feature","id":"smn_estaciones_meteorologicas.108","geometry":{"type":"Point","coordinates":[-69.3,-51.61666667]},"geometry_name":"geom","properties":{"gid":108,"nombre":"Rio Gallegos Aéro","latitud":-51.616666670000001,"longitud":-69.299999999999997,"altura":19,"nro":87925,"nro_oaci":"SAWG","fuente":"SMN"},"bbox":[-69.3,-51.61666667,-69.3,-51.61666667]},{"type":"Feature","id":"smn_estaciones_meteorologicas.109","geometry":{"type":"Point","coordinates":[-67.8,-49.3]},"geometry_name":"geom","properties":{"gid":109,"nombre":"San Julian Aéro","latitud":-49.299999999999997,"longitud":-67.799999999999997,"altura":62,"nro":87909,"nro_oaci":"SAWJ","fuente":"SMN"},"bbox":[-67.8,-49.3,-67.8,-49.3]},{"type":"Feature","id":"smn_estaciones_meteorologicas.110","geometry":{"type":"Point","coordinates":[-68.58333333,-50.01666667]},"geometry_name":"geom","properties":{"gid":110,"nombre":"Santa Cruz Aéro","latitud":-50.016666669999999,"longitud":-68.583333330000002,"altura":111,"nro":87912,"nro_oaci":"SAWU","fuente":"SMN"},"bbox":[-68.58333333,-50.01666667,-68.58333333,-50.01666667]},{"type":"Feature","id":"smn_estaciones_meteorologicas.111","geometry":{"type":"Point","coordinates":[-61.93333333,-29.88333333]},"geometry_name":"geom","properties":{"gid":111,"nombre":"Ceres Aéro","latitud":-29.883333329999999,"longitud":-61.933333330000004,"altura":88,"nro":87257,"nro_oaci":"SANW","fuente":"SMN"},"bbox":[-61.93333333,-29.88333333,-61.93333333,-29.88333333]},{"type":"Feature","id":"smn_estaciones_meteorologicas.112","geometry":{"type":"Point","coordinates":[-61.71666667,-32.2]},"geometry_name":"geom","properties":{"gid":112,"nombre":"El Trebol","latitud":-32.200000000000003,"longitud":-61.716666670000002,"altura":96,"nro":87470,"nro_oaci":"SAFT","fuente":"SMN"},"bbox":[-61.71666667,-32.2,-61.71666667,-32.2]},{"type":"Feature","id":"smn_estaciones_meteorologicas.113","geometry":{"type":"Point","coordinates":[-61.51666667,-31.28333333]},"geometry_name":"geom","properties":{"gid":113,"nombre":"Rafaela Aéro","latitud":-31.283333330000001,"longitud":-61.516666669999999,"altura":99,"nro":87360,"nro_oaci":"SAFR","fuente":"SMN"},"bbox":[-61.51666667,-31.28333333,-61.51666667,-31.28333333]},{"type":"Feature","id":"smn_estaciones_meteorologicas.114","geometry":{"type":"Point","coordinates":[-59.7,-29.2]},"geometry_name":"geom","properties":{"gid":114,"nombre":"Reconquista Aéro","latitud":-29.199999999999999,"longitud":-59.700000000000003,"altura":53,"nro":87270,"nro_oaci":"SATR","fuente":"SMN"},"bbox":[-59.7,-29.2,-59.7,-29.2]},{"type":"Feature","id":"smn_estaciones_meteorologicas.115","geometry":{"type":"Point","coordinates":[-60.78333333,-32.9]},"geometry_name":"geom","properties":{"gid":115,"nombre":"Rosario Aéro","latitud":-32.899999999999999,"longitud":-60.783333329999998,"altura":25,"nro":87480,"nro_oaci":"SAAR","fuente":"SMN"},"bbox":[-60.78333333,-32.9,-60.78333333,-32.9]},{"type":"Feature","id":"smn_estaciones_meteorologicas.116","geometry":{"type":"Point","coordinates":[-60.8,-31.7]},"geometry_name":"geom","properties":{"gid":116,"nombre":"Sauce Viejo Aéro","latitud":-31.699999999999999,"longitud":-60.799999999999997,"altura":18,"nro":87371,"nro_oaci":"SAAV","fuente":"SMN"},"bbox":[-60.8,-31.7,-60.8,-31.7]},{"type":"Feature","id":"smn_estaciones_meteorologicas.117","geometry":{"type":"Point","coordinates":[-61.53333333,-30.95]},"geometry_name":"geom","properties":{"gid":117,"nombre":"Sunchales Aéro","latitud":-30.949999999999999,"longitud":-61.533333329999998,"altura":92,"nro":87356,"nro_oaci":"SAFS","fuente":"SMN"},"bbox":[-61.53333333,-30.95,-61.53333333,-30.95]},{"type":"Feature","id":"smn_estaciones_meteorologicas.118","geometry":{"type":"Point","coordinates":[-61.96666667,-33.68333333]},"geometry_name":"geom","properties":{"gid":118,"nombre":"Venado Tuerto Aéro","latitud":-33.683333330000004,"longitud":-61.966666670000002,"altura":112,"nro":87468,"nro_oaci":"SAFV","fuente":"SMN"},"bbox":[-61.96666667,-33.68333333,-61.96666667,-33.68333333]},{"type":"Feature","id":"smn_estaciones_meteorologicas.119","geometry":{"type":"Point","coordinates":[-64.3,-27.75]},"geometry_name":"geom","properties":{"gid":119,"nombre":"Santiago Del Estero Aéro","latitud":-27.75,"longitud":-64.299999999999997,"altura":199,"nro":87129,"nro_oaci":"SANE","fuente":"SMN"},"bbox":[-64.3,-27.75,-64.3,-27.75]},{"type":"Feature","id":"smn_estaciones_meteorologicas.120","geometry":{"type":"Point","coordinates":[-64.93333333,-27.5]},"geometry_name":"geom","properties":{"gid":120,"nombre":"Termas De Rio Hondo Aéro","latitud":-27.5,"longitud":-64.933333329999996,"altura":280,"nro":87127,"nro_oaci":"SANR","fuente":"SMN"},"bbox":[-64.93333333,-27.5,-64.93333333,-27.5]},{"type":"Feature","id":"smn_estaciones_meteorologicas.121","geometry":{"type":"Point","coordinates":[-67.76666667,-53.78333333]},"geometry_name":"geom","properties":{"gid":121,"nombre":"Rio Grande B.A.","latitud":-53.783333329999998,"longitud":-67.766666670000006,"altura":22,"nro":87934,"nro_oaci":"SAWE","fuente":"SMN"},"bbox":[-67.76666667,-53.78333333,-67.76666667,-53.78333333]},{"type":"Feature","id":"smn_estaciones_meteorologicas.122","geometry":{"type":"Point","coordinates":[-68.3,-54.83333333]},"geometry_name":"geom","properties":{"gid":122,"nombre":"Ushuaia Aéro","latitud":-54.833333330000002,"longitud":-68.299999999999997,"altura":57,"nro":87938,"nro_oaci":"SAWH","fuente":"SMN"},"bbox":[-68.3,-54.83333333,-68.3,-54.83333333]},{"type":"Feature","id":"smn_estaciones_meteorologicas.123","geometry":{"type":"Point","coordinates":[-65.11666667,-26.83333333]},"geometry_name":"geom","properties":{"gid":123,"nombre":"Tucumán Aéro","latitud":-26.833333329999999,"longitud":-65.116666670000001,"altura":450,"nro":87121,"nro_oaci":"SANT","fuente":"SMN"},"bbox":[-65.11666667,-26.83333333,-65.11666667,-26.83333333]}],"totalFeatures":123,"numberMatched":123,"numberReturned":123,"timeStamp":"2026-08-04T15:02:23.230Z","crs":{"type":"name","properties":{"name":"urn:ogc:def:crs:EPSG::4326"}},"bbox":[-72.05,-77.86666667,-34.63333333,-22.1]}